plan,range,site_id,type,name,address,latitude,longitude
500,50,1,1,골든강남빌,"서울특별시 강남구 개포로31길 23-3",37.4804644000,127.0486160000
500,50,1,1,세종빌딩,"서울특별시 종로구 세종대로23길 54",37.5718397000,126.9733018000
500,50,1,1,수영빌딩,"서울특별시 용산구 한남대로20길 13",37.5349258000,127.0076796000
500,50,1,1,번동주공아파트,"서울특별시 강북구 오현로35길 62",37.6319752000,127.0382795000
500,50,1,1,창의벤처빌딩,"서울특별시 서초구 신반포로 27-12",37.5026069000,126.9874057000
500,50,1,1,반포아파트,"서울특별시 서초구 신반포로 27-6",37.5023254000,126.9875622000
500,50,1,1,골든빌라,"서울특별시 강남구 학동로67길 20",37.5196770000,127.0471392000
500,50,1,1,효성빌라,"서울특별시 송파구 송이로21길 32-11",37.4990972000,127.1233023000
500,50,1,1,화영빌라,"서울특별시 송파구 오금로44길 14",37.4963845000,127.1349800000
500,50,1,1,휴글빌딩,"서울특별시 송파구 양재대로62길 40",37.4964378000,127.1200250000
500,50,1,1,"한두리 빌라","서울특별시 송파구 송이로15길 36",37.5010580000,127.1229762000
500,50,1,1,한스빌,"서울특별시 송파구 동남로20길 51-14",37.4942646000,127.1373460000
500,50,1,1,현대골든빌라,"서울특별시 송파구 송이로17길 46-13",37.5008587000,127.1252540000
500,50,1,1,현대빌라,"서울특별시 송파구 송파대로30길 19-22",37.4960529000,127.1190207000
500,50,1,1,테마리슈빌,"서울특별시 송파구 중대로12길 8-18",37.4936085000,127.1225465000
500,50,1,1,파크빌딩,"서울특별시 송파구 송파대로32길 4-7",37.4949744000,127.1175365000
500,50,1,1,평화빌라,"서울특별시 송파구 오금로36길 68-5",37.4987904000,127.1210729000
500,50,1,1,중원빌딩,"서울특별시 송파구 오금로46길 28",37.4952700000,127.1343707000
500,50,1,1,주성파크빌,"서울특별시 송파구 오금로44가길 7",37.4971900000,127.1350456000
500,50,1,1,청송빌딩,"서울특별시 송파구 동남로 103",37.4899603000,127.1228371000
500,50,1,1,유성빌라,"서울특별시 송파구 동남로3길 17-11",37.4906282000,127.1211662000
500,50,1,1,일이빌딩,"서울특별시 송파구 송이로 111",37.4967206000,127.1221669000
500,50,1,1,정다운빌,"서울특별시 송파구 중대로14길 14",37.4947690000,127.1251908000
500,50,1,1,정문빌라,"서울특별시 송파구 문정로13길 19-5",37.4945869000,127.1347043000
500,50,1,1,예원빌리지,"서울특별시 송파구 오금로44길 41",37.4944898000,127.1330727000
500,50,1,1,우신빌라,"서울특별시 송파구 오금로34길 8-3",37.5027335000,127.1244403000
500,50,1,1,윤희빌,"서울특별시 송파구 송이로23길 16-19",37.4951602000,127.1257189000
500,50,1,1,이레빌딩,"서울특별시 송파구 중대로16길 6",37.4963273000,127.1254500000
500,50,1,1,애모리빌,"서울특별시 송파구 송이로23길 30-5",37.4967774000,127.1258396000
500,50,1,1,에이스존.빌,"서울특별시 송파구 동남로11길 22-5",37.4927955000,127.1263602000
500,50,1,1,시온빌딩,"서울특별시 송파구 오금로46길 29",37.4949265000,127.1344507000
500,50,1,1,스위트빌A,"서울특별시 송파구 송이로21길 51-1",37.4996814000,127.1219511000
500,50,1,1,신현대빌라,"서울특별시 송파구 양재대로64길 20",37.5003946000,127.1223888000
500,50,1,1,성보빌딩,"서울특별시 송파구 양재대로62길 44",37.4961592000,127.1202268000
500,50,1,1,성지빌라,"서울특별시 송파구 중대로9길 45-11",37.4976160000,127.1184889000
500,50,1,1,삼성빌라,"서울특별시 송파구 오금로44길 27",37.4954374000,127.1341705000
500,50,1,1,삼전빌딩,"서울특별시 송파구 동남로20길 22",37.4955888000,127.1343109000
500,50,1,1,상아빌딩,"서울특별시 송파구 송이로 171",37.4921004000,127.1260273000
500,50,1,1,샹지아빌,"서울특별시 송파구 동남로9길 17-9",37.4936070000,127.1263682000
500,50,1,1,성심빌라,"서울특별시 송파구 송이로19길 42-10",37.4994987000,127.1251025000
500,50,1,1,보람해피빌리지,"서울특별시 송파구 오금로44길 8",37.4968798000,127.1356441000
500,50,1,1,로드빌,"서울특별시 송파구 오금로34길 4-10",37.5033659000,127.1247413000
500,50,1,1,목화5차빌라트,"서울특별시 송파구 오금로34길 4-3",37.5030364000,127.1248307000
500,50,1,1,돈디빌,"서울특별시 송파구 동남로9길 11",37.4930754000,127.1267782000
500,50,1,1,동방빌라,"서울특별시 송파구 양재대로68길 3",37.5030520000,127.1230711000
500,50,1,1,동양빌라,"서울특별시 송파구 송파대로26길 10-1",37.4911416000,127.1212761000
500,50,1,1,두원빌딩,"서울특별시 송파구 중대로9길 44",37.4968745000,127.1188992000
500,50,1,1,다윤빌딩,"서울특별시 송파구 오금로 332",37.5014568000,127.1285216000
500,50,1,1,대성빌딩,"서울특별시 송파구 송이로21길 54",37.5000738000,127.1219177000
500,50,1,1,대호빌딩,"서울특별시 송파구 중대로9길 34",37.4961827000,127.1187345000
500,50,1,1,공육이오빌딩,"서울특별시 송파구 중대로9길 62",37.4977641000,127.1203593000
500,50,1,1,규현빌딩,"서울특별시 송파구 양재대로62길 33",37.4970674000,127.1198904000
500,50,1,1,금원빌,"서울특별시 송파구 오금로38가길 33",37.4994599000,127.1269589000
500,50,1,1,건영빌라,"서울특별시 송파구 문정로13길 15-10",37.4943352000,127.1346445000
500,50,1,1,"가락동훼미리오피스텔 2차","서울특별시 송파구 송파대로28길 6",37.4935229000,127.1190359000
500,50,1,1,가락스위트빌,"서울특별시 송파구 송이로23길 38",37.4974005000,127.1259517000
500,50,1,1,개롱파크빌,"서울특별시 송파구 오금로44나길 6",37.4963367000,127.1346831000
500,50,1,1,가락형제빌라,"서울특별시 송파구 문정로13길 15-12",37.4942449000,127.1345452000
500,50,1,1,가락금호아파트,"서울특별시 송파구 송파대로32길 15",37.4967033000,127.1162029000
500,50,1,1,우송쉐르빌,"서울특별시 구로구 남부순환로107가길 5",37.4791893000,126.8932123000
500,50,1,1,신우아트빌,"서울특별시 구로구 남부순환로105길 240-6",37.4854369000,126.8826117000
500,50,1,1,미래하이츠아파트,"서울특별시 구로구 남부순환로107길 12",37.4792122000,126.8940196000
500,50,1,1,동진아트빌,"서울특별시 구로구 구로동로7다길 15",37.4867228000,126.8824188000
500,50,1,1,금강파크빌,"서울특별시 구로구 디지털로20길 20",37.4796166000,126.8920046000
500,50,1,1,화인빌리지,"서울특별시 구로구 구로동로 15-10",37.4831782000,126.8863272000
500,50,1,1,창성에코빌,"서울특별시 구로구 구로동로7가길 5",37.4851033000,126.8853438000
500,50,1,1,진양빌라,"서울특별시 금천구 두산로9길 57",37.4729989000,126.8924247000
500,50,1,1,조양그랜드빌,"서울특별시 금천구 두산로9길 46",37.4724994000,126.8928535000
500,50,1,1,봉암빌라,"서울특별시 금천구 가산로7길 71",37.4737546000,126.8897327000
500,50,1,1,영화빌라,"서울특별시 금천구 시흥대로149가길 29-2",37.4762627000,126.8945329000
500,50,1,1,더빌딩파크빌,"서울특별시 금천구 가산로3길 140",37.4721467000,126.8877889000
500,50,1,1,로뎀아트빌,"서울특별시 금천구 남부순환로108길 20-1",37.4779980000,126.8920093000
500,50,1,1,라비앙캐슬,"서울특별시 금천구 시흥대로153길 68-6",37.4770261000,126.8947941000
500,50,1,1,백운한비치아파트,"서울특별시 금천구 남부순환로108길 23-10",37.4774247000,126.8924197000
500,50,1,1,공간오피스텔,"서울특별시 금천구 가산로7길 81",37.4734398000,126.8893552000
500,50,1,1,금강파크빌,"서울특별시 금천구 두산로3가길 12-5",37.4729536000,126.8896319000
500,50,1,1,노광빌라,"서울특별시 금천구 벚꽃로40길 29",37.4825655000,126.8843742000
500,50,1,1,대동아파트,"서울특별시 금천구 시흥대로153길 74-1",37.4768618000,126.8940750000
500,50,1,1,가산동빌딩,"서울특별시 금천구 남부순환로108길 27",37.4776089000,126.8919824000
500,50,1,1,흥림아트빌,"서울특별시 강서구 양천로47나길 42",37.5722380000,126.8398841000
500,50,1,1,한영빌딩,"서울특별시 강서구 양천로49길 25",37.5697811000,126.8405718000
500,50,1,1,우성빌라,"서울특별시 강서구 양천로47가길 28",37.5707729000,126.8394673000
500,50,1,1,제이드아트빌,"서울특별시 강서구 양천로47나길 21-16",37.5720523000,126.8392495000
500,50,1,1,태민빌딩,"서울특별시 강서구 양천로57길 9-8",37.5636743000,126.8517826000
500,50,1,1,려산빌딩,"서울특별시 강서구 양천로 357",37.5680653000,126.8426303000
500,50,1,1,가양7단지아파트,"서울특별시 강서구 허준로 209",37.5621998000,126.8616635000
500,50,1,1,강서한강자이타워,"서울특별시 강서구 양천로 401",37.5656521000,126.8476921000
500,50,1,1,안국메트로빌,"서울특별시 종로구 북촌로 67-7",37.5827939000,126.9845410000
500,50,1,1,가회동빌라,"서울특별시 종로구 북촌로 97",37.5854956000,126.9850553000
500,50,1,1,재원아크로빌,"서울특별시 용산구 한강대로98가길 28",37.5472536000,126.9737391000
500,50,1,1,한성빌딩,"서울특별시 용산구 한강대로 324",37.5472061000,126.9721672000
500,50,1,1,동양아파트,"서울특별시 용산구 한강대로102길 18",37.5496667000,126.9728375000
500,50,1,1,해담빌라트,"서울특별시 은평구 서오릉로18길 27",37.6167388000,126.9109277000
500,50,1,1,호림리슈리안빌라트6차,"서울특별시 은평구 갈현로35길 4-5",37.6212372000,126.9161416000
500,50,1,1,현대아트빌,"서울특별시 은평구 갈현로21길 19",37.6162359000,126.9114096000
500,50,1,1,현진빌딩,"서울특별시 은평구 연서로29길 30-4",37.6198743000,126.9173621000
500,50,1,1,한스빌,"서울특별시 은평구 연서로21길 20-3",37.6152426000,126.9157397000
500,50,1,1,하오빌,"서울특별시 은평구 연서로21길 14-13",37.6153688000,126.9160970000
500,50,1,1,한일그린빌,"서울특별시 은평구 통일로85길 14-11",37.6227370000,126.9179697000
500,50,1,1,해창위너스빌,"서울특별시 은평구 갈현로33길 8-8",37.6207228000,126.9157823000
500,50,1,1,타미에코빌,"서울특별시 은평구 연서로27길 11-9",37.6174443000,126.9181195000
500,50,1,1,하나세인트빌,"서울특별시 은평구 갈현로45길 20-5",37.6273150000,126.9168407000
500,50,1,1,한성샤인빌,"서울특별시 은평구 갈현로47가길 1-11",37.6273161000,126.9172820000
500,50,1,1,천지아파트,"서울특별시 은평구 통일로89길 10",37.6247236000,126.9187699000
500,50,1,1,진양빌라,"서울특별시 은평구 서오릉로18길 35-22",37.6180789000,126.9105720000
500,50,1,1,월드샤인빌,"서울특별시 은평구 서오릉로24길 9",37.6176325000,126.9073120000
500,50,1,1,유성하이빌,"서울특별시 은평구 갈현로35길 8",37.6211857000,126.9157951000
500,50,1,1,예림빌5차,"서울특별시 은평구 갈현로27길 9-8",37.6178288000,126.9135565000
500,50,1,1,예작빌,"서울특별시 은평구 갈현로35길 15-10",37.6210866000,126.9149058000
500,50,1,1,우진빌라,"서울특별시 은평구 갈현로45길 13-1",37.6264290000,126.9169111000
500,50,1,1,위너스빌,"서울특별시 은평구 갈현로45길 14-13",37.6269773000,126.9171422000
500,50,1,1,아름빌,"서울특별시 은평구 갈현로47길 16",37.6276740000,126.9178209000
500,50,1,1,영지빌라,"서울특별시 은평구 연서로25길 23-15",37.6170717000,126.9161154000
500,50,1,1,영보빌딩,"서울특별시 은평구 연서로 195",37.6163934000,126.9184727000
500,50,1,1,신아굿모닝빌,"서울특별시 은평구 연서로21길 24-26",37.6163221000,126.9155124000
500,50,1,1,신풍아트빌,"서울특별시 은평구 연서로19길 7-5",37.6133597000,126.9167155000
500,50,1,1,신풍아트빌,"서울특별시 은평구 연서로23길 3-10",37.6151847000,126.9172610000
500,50,1,1,양지에버빌,"서울특별시 은평구 갈현로45길 4",37.6262116000,126.9179315000
500,50,1,1,선구아파트,"서울특별시 은평구 갈현로 232",37.6177180000,126.9152529000
500,50,1,1,수정넥스빌,"서울특별시 은평구 통일로87길 6-29",37.6238605000,126.9182104000
500,50,1,1,선하아트빌,"서울특별시 은평구 연서로27길 11-10",37.6175582000,126.9178154000
500,50,1,1,세광하이빌,"서울특별시 은평구 연서로17길 46-30",37.6144754000,126.9133758000
500,50,1,1,삼원렉스빌,"서울특별시 은평구 갈현로 249-10",37.6196915000,126.9149748000
500,50,1,1,명진하이빌,"서울특별시 은평구 통일로87길 6-30",37.6241286000,126.9182361000
500,50,1,1,미미아파트,"서울특별시 은평구 갈현로29길 11",37.6191452000,126.9136904000
500,50,1,1,보성리엔빌,"서울특별시 은평구 갈현로21길 10-2",37.6161843000,126.9125259000
500,50,1,1,마이다스빌,"서울특별시 은평구 연서로25길 11-7",37.6165098000,126.9174565000
500,50,1,1,대원아트빌,"서울특별시 은평구 갈현로19길 4-5",37.6154812000,126.9123049000
500,50,1,1,대진아트빌,"서울특별시 은평구 갈현로21길 21-5",37.6160761000,126.9112219000
500,50,1,1,데미안빌,"서울특별시 은평구 갈현로45나길 3-2",37.6283571000,126.9144231000
500,50,1,1,다성에버빌,"서울특별시 은평구 갈현로33길 42",37.6220543000,126.9122029000
500,50,1,1,누리애빌,"서울특별시 은평구 서오릉로22길 27",37.6184373000,126.9075682000
500,50,1,1,다원하이빌,"서울특별시 은평구 서오릉로18길 13-20",37.6163546000,126.9103482000
500,50,1,1,금원빌라,"서울특별시 은평구 갈현로47길 10",37.6273066000,126.9183326000
500,50,1,1,금강블루빌,"서울특별시 은평구 갈현로47길 3",37.6268301000,126.9186918000
500,50,1,1,경남드림빌,"서울특별시 은평구 서오릉로20길 4-1",37.6157498000,126.9091278000
500,50,1,1,국용빌딩,"서울특별시 은평구 통일로 889",37.6223166000,126.9195181000
500,50,1,1,건우데미안빌,"서울특별시 은평구 갈현로37길 16",37.6231419000,126.9160233000
500,50,1,1,(주)신한방갈현동빌딩,"서울특별시 은평구 연서로 161",37.6132873000,126.9171653000
500,50,1,1,갈현동건영아파트,"서울특별시 은평구 갈현로45길 57",37.6289460000,126.9136013000
500,50,1,1,갈현유니빌,"서울특별시 은평구 갈현로25길 7-1",37.6171837000,126.9138331000
500,50,1,1,강일리버파크3단지아파트,"서울특별시 강동구 아리수로93길 40",37.5670541000,127.1752256000
500,50,1,1,형지그린빌,"서울특별시 구로구 고척로27길 58-6",37.5044303000,126.8465967000
500,50,1,1,해품달리치빌,"서울특별시 구로구 고척로21가길 66",37.5012494000,126.8425170000
500,50,1,1,현대하이츠빌,"서울특별시 구로구 개봉로17아길 34",37.4926701000,126.8510702000
500,50,1,1,태인하이빌,"서울특별시 구로구 개봉로17길 30-13",37.4922228000,126.8539841000
500,50,1,1,평화파크빌라,"서울특별시 구로구 개봉로15길 46-8",37.4901866000,126.8533989000
500,50,1,1,하은빌리지,"서울특별시 구로구 경인로42길 26",37.4954806000,126.8606520000
500,50,1,1,한맥케렌시아,"서울특별시 구로구 개봉로11나길 10-14",37.4895672000,126.8517401000
500,50,1,1,한샘하이빌,"서울특별시 구로구 개봉로11길 46-18",37.4887281000,126.8535624000
500,50,1,1,청구빌라,"서울특별시 구로구 개봉로17나길 37",37.4930640000,126.8531775000
500,50,1,1,청솔빌,"서울특별시 구로구 개봉로3가길 82-33",37.4835572000,126.8517205000
500,50,1,1,탑빌리지,"서울특별시 구로구 개봉로3가길 88-6",37.4829188000,126.8521808000
500,50,2,1,제이에스빌,"서울특별시 구로구 고척로21가길 19",37.5019305000,126.8449325000
500,50,2,1,진영에코빌,"서울특별시 구로구 고척로21가길 28",37.5021661000,126.8443386000
500,50,2,1,진주빌라,"서울특별시 구로구 경인로33길 35",37.4995724000,126.8513916000
500,50,2,1,창동그린빌라,"서울특별시 구로구 고척로21나길 69-20",37.5016988000,126.8417372000
500,50,2,1,이화빌라,"서울특별시 구로구 개봉로12길 9-35",37.4897769000,126.8566909000
500,50,2,1,장원센스빌,"서울특별시 구로구 경인로33마길 24",37.5007585000,126.8495593000
500,50,2,1,오성드림빌,"서울특별시 구로구 고척로27다길 11",37.5051657000,126.8464136000
500,50,2,1,우남빌라,"서울특별시 구로구 고척로20길 49",37.4992359000,126.8469046000
500,50,2,1,우영파크빌,"서울특별시 구로구 고척로18길 49",37.4988463000,126.8458596000
500,50,2,1,원창아트빌,"서울특별시 구로구 개봉로10길 27",37.4878659000,126.8579316000
500,50,2,1,유일빌라,"서울특별시 구로구 개봉로11길 45-9",37.4875357000,126.8536776000
500,50,2,1,영민빌딩,"서울특별시 구로구 고척로21가길 6-6",37.5025206000,126.8454800000
500,50,2,1,영화아이닉스아파트,"서울특별시 구로구 개봉로1길 188",37.4828279000,126.8492572000
500,50,2,1,오복한마음빌,"서울특별시 구로구 개봉로11길 38-11",37.4884514000,126.8537066000
500,50,2,1,오성드림빌,"서울특별시 구로구 경인로35길 16-8",37.4985314000,126.8551709000
500,50,2,1,신양지아파트,"서울특별시 구로구 개봉로17바길 49",37.4934053000,126.8512311000
500,50,2,1,안덕그린빌라,"서울특별시 구로구 개봉로17길 46",37.4914258000,126.8532734000
500,50,2,1,에덴빌라,"서울특별시 구로구 개봉로15길 84-22",37.4908120000,126.8512361000
500,50,2,1,세림빌라,"서울특별시 구로구 개봉로17다길 67",37.4939158000,126.8516241000
500,50,2,1,송신빌라,"서울특별시 구로구 고척로21가길 20-8",37.5024648000,126.8447442000
500,50,2,1,수정빌라트,"서울특별시 구로구 고척로21다길 28-9",37.5035891000,126.8434846000
500,50,2,1,시몬쉐르빌,"서울특별시 구로구 개봉로5길 31",37.4866172000,126.8538457000
500,50,2,1,시몬아트빌라,"서울특별시 구로구 개봉로15길 58-25",37.4910122000,126.8525090000
500,50,2,1,신세계드림빌,"서울특별시 구로구 개봉로16길 18-12",37.4895510000,126.8572419000
500,50,2,1,서정아트빌라,"서울특별시 구로구 개봉로15길 18-27",37.4910799000,126.8546062000
500,50,2,1,선영빌라,"서울특별시 구로구 개봉로17마길 9-13",37.4915596000,126.8523499000
500,50,2,1,성산아트빌,"서울특별시 구로구 고척로27길 93-3",37.5058730000,126.8453780000
500,50,2,1,성은빌딩,"서울특별시 구로구 개봉로3길 35",37.4861749000,126.8543242000
500,50,2,1,성현빌라,"서울특별시 구로구 개봉로3길 96",37.4861827000,126.8509327000
500,50,2,1,삼성빌리지,"서울특별시 구로구 고척로21라길 42-10",37.5048941000,126.8418293000
500,50,2,1,삼원아이빌,"서울특별시 구로구 개봉로17나길 15",37.4928942000,126.8544243000
500,50,2,1,삼화씨티빌,"서울특별시 구로구 고척로20길 44-5",37.4990796000,126.8462760000
500,50,2,1,상우하이츠빌,"서울특별시 구로구 고척로21나길 8-5",37.5031835000,126.8449321000
500,50,2,1,별장빌라,"서울특별시 구로구 고척로21가길 84-53",37.5016550000,126.8414894000
500,50,2,1,보해빌라,"서울특별시 구로구 개봉로17바길 34",37.4927049000,126.8515994000
500,50,2,1,부원빌라,"서울특별시 구로구 개봉로17나길 61-17",37.4927329000,126.8521144000
500,50,2,1,삼미프리빌103차,"서울특별시 구로구 개봉로17아길 52",37.4935053000,126.8509936000
500,50,2,1,명품준쉐르빌,"서울특별시 구로구 개봉로11길 18-27",37.4892338000,126.8548011000
500,50,2,1,목화타운빌라,"서울특별시 구로구 고척로21가길 92-4",37.5009074000,126.8414011000
500,50,2,1,미건스위트빌,"서울특별시 구로구 개봉로23가길 109",37.4942702000,126.8621861000
500,50,2,1,미래시티빌,"서울특별시 구로구 개봉로15길 28-17",37.4906370000,126.8541268000
500,50,2,1,베스트빌일차,"서울특별시 구로구 개봉로17라길 20-2",37.4922405000,126.8536998000
500,50,2,1,마이빌2차,"서울특별시 구로구 개봉로17길 60",37.4913873000,126.8525213000
500,50,2,1,매봉아트빌라,"서울특별시 구로구 고척로21나길 32-13",37.5030736000,126.8435533000
500,50,2,1,명문아이빌,"서울특별시 구로구 개봉로12길 35-4",37.4883481000,126.8586823000
300,50,2,1,드림빌,"서울특별시 구로구 고척로27길 88",37.5058418000,126.8459800000
300,50,2,1,디자인골든빌,"서울특별시 구로구 개봉로17다길 13",37.4932819000,126.8545736000
300,50,2,1,디자인화이트빌,"서울특별시 구로구 개봉로17길 30-10",37.4920909000,126.8542949000
300,50,2,1,레오아파트,"서울특별시 구로구 개봉로17나길 28",37.4931808000,126.8538463000
300,50,2,1,대흥빌리지,"서울특별시 구로구 개봉로20길 91-32",37.4929703000,126.8613202000
300,50,2,1,덕산상가빌딩,"서울특별시 구로구 고척로 92",37.5006415000,126.8443986000
300,50,2,1,동인아파트,"서울특별시 구로구 서해안로34가길 22",37.4938072000,126.8489347000
300,50,2,1,대로빌라,"서울특별시 구로구 개봉로15길 33",37.4897593000,126.8542261000
300,50,2,1,대림아트빌,"서울특별시 구로구 개봉로17마길 31",37.4927201000,126.8528510000
300,50,2,1,대우렉스빌,"서울특별시 구로구 개봉로1나길 46-9",37.4854166000,126.8527812000
300,50,2,1,대우아트빌라,"서울특별시 구로구 개봉로15길 18-14",37.4905605000,126.8549619000
300,50,2,1,금정빌라,"서울특별시 구로구 개봉로11길 17-15",37.4873583000,126.8552859000
300,50,2,1,꿈애그린빌2차,"서울특별시 구로구 개봉로17마길 17-17",37.4919612000,126.8521358000
300,50,2,1,누리애빌라,"서울특별시 구로구 서해안로34가길 53",37.4942647000,126.8501205000
300,50,2,1,다원리치빌2차,"서울특별시 구로구 개봉로11길 66-40",37.4882552000,126.8514507000
300,50,2,1,건양아파트,"서울특별시 구로구 개봉로11길 18-6",37.4883174000,126.8551953000
300,50,2,1,경원빌리지,"서울특별시 구로구 개봉로15길 10-5",37.4901753000,126.8552228000
300,50,2,1,골드원아트빌,"서울특별시 구로구 고척로25길 80",37.5051192000,126.8454092000
300,50,2,1,광성하이빌,"서울특별시 구로구 개봉로15길 36-7",37.4901865000,126.8536387000
300,50,2,1,그레이스빌,"서울특별시 구로구 개봉로17마길 9-5",37.4915860000,126.8528344000
300,50,2,1,개봉동미래빌딩,"서울특별시 구로구 개봉로16길 26",37.4899925000,126.8577052000
300,50,2,1,개웅빌라,"서울특별시 구로구 개봉로11길 66-36",37.4882445000,126.8516661000
300,50,2,1,거성빌라,"서울특별시 구로구 고척로21나길 88-99",37.5034788000,126.8420602000
300,50,2,1,거성빌라,"서울특별시 구로구 고척로21나길 88-91",37.5034439000,126.8418500000
300,50,2,1,거창빌라,"서울특별시 구로구 고척로21나길 99",37.5023704000,126.8404390000
300,50,2,1,KS프리미어빌딩,"서울특별시 구로구 남부순환로97길 3",37.4940221000,126.8582496000
300,50,2,1,OK빌리지,"서울특별시 구로구 고척로21다길 20-14",37.5040143000,126.8439362000
300,50,2,1,강남센스빌,"서울특별시 구로구 개봉로17다길 73",37.4940723000,126.8513302000
300,50,2,1,YH빌리지,"서울특별시 강남구 논현로20길 22",37.4782510000,127.0466676000
300,50,2,1,대경빌딩,"서울특별시 강남구 논현로2길 40",37.4735292000,127.0535231000
300,50,2,1,다우빌딩,"서울특별시 강남구 논현로 38",37.4743908000,127.0484536000
300,50,2,1,그린빌,"서울특별시 강남구 개포로25길 21-7",37.4803505000,127.0474805000
300,50,2,1,삼우빌딩,"서울특별시 강남구 개포로82길 11",37.4885648000,127.0674601000
300,50,2,1,보성빌딩,"서울특별시 강남구 논현로 90",37.4779712000,127.0450952000
300,50,2,1,베네스트빌,"서울특별시 강남구 논현로8길 54-7",37.4745578000,127.0535968000
300,50,2,1,로얄빌딩,"서울특별시 강남구 개포로 239",37.4791074000,127.0487845000
300,50,2,1,드림빌라,"서울특별시 강남구 논현로2길 15",37.4726272000,127.0516693000
300,50,2,1,슈베르트빌,"서울특별시 강남구 논현로2길 64",37.4744732000,127.0549411000
300,50,2,1,소망빌딩,"서울특별시 강남구 개포로 508",37.4892391000,127.0679694000
300,50,2,1,지성빌딩,"서울특별시 강남구 논현로 80",37.4772427000,127.0455224000
300,50,2,1,우찬현대아파트,"서울특별시 강남구 개포로31길 9-5",37.4795542000,127.0491250000
300,50,2,1,와세다빌딩,"서울특별시 강남구 논현로 30",37.4737421000,127.0490884000
300,50,2,1,연빌딩,"서울특별시 강남구 개포로20길 17",37.4777561000,127.0478335000
300,50,2,1,형지빌딩,"서울특별시 강남구 개포로 208",37.4782857000,127.0456644000
300,50,2,1,포이현대빌라트,"서울특별시 강남구 논현로4길 50",37.4740963000,127.0537514000
300,50,2,1,충원아트빌,"서울특별시 강남구 개포로20길 53",37.4758264000,127.0498131000
300,50,2,1,진성빌딩,"서울특별시 강남구 개포로 252",37.4789355000,127.0500886000
300,50,2,1,효성럭스빌,"서울특별시 강남구 개포로26길 24",37.4775300000,127.0496516000
300,50,2,1,가능빌딩,"서울특별시 송파구 오금로 521",37.4931401000,127.1467436000
300,50,2,1,금수산빌라,"서울특별시 송파구 거마로5길 15",37.4950124000,127.1434868000
300,50,2,1,거여4단지아파트,"서울특별시 송파구 양산로4길 8",37.4893760000,127.1438738000
300,50,2,1,"거여동 골드빌Ⅱ","서울특별시 송파구 거마로7길 30",37.4968610000,127.1427634000
300,50,2,1,고은빌,"서울특별시 송파구 오금로64가길 20-2",37.4916817000,127.1492486000
300,100,2,1,거여1단지아파트,"서울특별시 송파구 양산로8길 4",37.4918374000,127.1443165000
300,100,2,1,삼덕빌딩,"서울특별시 송파구 오금로 480",37.4938441000,127.1423022000
300,100,2,1,로얄빌라,"서울특별시 송파구 거마로3길 41",37.4957971000,127.1407056000
300,100,2,1,명산빌라,"서울특별시 송파구 거마로2길 16",37.4933037000,127.1463770000
300,100,2,1,덕산아트빌리지,"서울특별시 송파구 오금로51길 14",37.4964221000,127.1408239000
300,100,2,1,다온빌딩,"서울특별시 송파구 오금로 520",37.4927657000,127.1465811000
300,100,2,1,대화빌딩,"서울특별시 송파구 거마로 13",37.4944938000,127.1446952000
300,100,2,1,아키스빌2,"서울특별시 송파구 거마로2길 38",37.4932053000,127.1487873000
300,100,2,1,상형빌딩,"서울특별시 송파구 거마로 12",37.4939110000,127.1450199000
300,100,2,1,선명아트빌,"서울특별시 송파구 오금로53길 9-13",37.4960607000,127.1409779000
300,100,2,1,인창빌딩,"서울특별시 송파구 오금로 457",37.4953766000,127.1404239000
300,100,2,1,제이빌,"서울특별시 송파구 오금로53길 9",37.4956668000,127.1414481000
300,100,2,1,어드벤처빌딩,"서울특별시 송파구 오금로 469",37.4947682000,127.1416123000
300,100,2,1,현대아트빌라,"서울특별시 송파구 거마로7길 5-14",37.4950473000,127.1440653000
300,100,2,1,풍산빌딩,"서울특별시 송파구 거마로5길 4",37.4944140000,127.1444531000
300,100,2,1,제일빌라,"서울특별시 송파구 거마로7길 34",37.4971209000,127.1423990000
300,100,2,1,천마빌딩,"서울특별시 종로구 우정국로 46",37.5731115000,126.9833532000
300,100,2,1,장산빌라,"서울특별시 종로구 계동길 119-1",37.5825823000,126.9866762000
300,100,2,1,삼방빌딩,"서울특별시 종로구 계동2길 26",37.5794843000,126.9876205000
300,100,2,1,은광빌딩,"서울특별시 강동구 동남로82길 89",37.5606823000,127.1619747000
300,100,2,1,재도빌딩,"서울특별시 강동구 상일로15길 6",37.5583577000,127.1707462000
300,100,2,1,경일빌라,"서울특별시 강동구 고덕로79길 126",37.5620263000,127.1660919000
300,100,2,1,행운빌라,"서울특별시 구로구 고척로27다길 37",37.5054853000,126.8480995000
300,100,2,1,진성아파트,"서울특별시 구로구 중앙로15길 88",37.5071051000,126.8551714000
300,100,2,1,초계빌딩,"서울특별시 구로구 경서로3길 18",37.5002271000,126.8564149000
300,100,2,1,태영빌,"서울특별시 구로구 경인로35길 103-5",37.5008745000,126.8519911000
300,100,2,1,평화그린빌,"서울특별시 구로구 고척로47길 11",37.5050456000,126.8539358000
300,100,2,1,한효아파트,"서울특별시 구로구 중앙로5길 24",37.5012540000,126.8618853000
300,100,2,1,예인아파트,"서울특별시 구로구 중앙로15길 84",37.5070400000,126.8553702000
300,100,2,1,용천빌딩,"서울특별시 구로구 경서로3길 4",37.5000628000,126.8571081000
300,100,2,1,이스턴빌,"서울특별시 구로구 고척로27마길 18-5",37.5060968000,126.8468080000
300,100,2,1,재성빌라,"서울특별시 구로구 경인로47다길 37-7",37.5042492000,126.8656576000
300,100,2,1,성재파크빌,"서울특별시 구로구 안양천로537가길 28",37.5016116000,126.8681997000
300,100,2,1,수명그린빌,"서울특별시 구로구 고척로31길 88",37.5060296000,126.8465184000
300,100,2,1,보광빌딩,"서울특별시 구로구 목동남로 32",37.5080061000,126.8636182000
300,100,2,1,삼성파크빌,"서울특별시 구로구 고척로27다길 58",37.5056784000,126.8493173000
300,100,2,1,상암빌딩,"서울특별시 구로구 고척로 149",37.5031045000,126.8501416000
300,100,2,1,명품하이츠빌,"서울특별시 구로구 경서로11길 46",37.5043902000,126.8580012000
300,100,2,1,골든빌,"서울특별시 구로구 고척로41길 25",37.5045284000,126.8512332000
300,100,2,1,금영빌라트,"서울특별시 구로구 경인로35길 107",37.5011624000,126.8521439000
300,100,2,1,대림리더스오피스텔,"서울특별시 구로구 중앙로6길 22",37.5001432000,126.8648504000
300,100,2,1,대성빌라,"서울특별시 구로구 경서로 19",37.4991534000,126.8566288000
300,100,2,1,경남2차아파트,"서울특별시 구로구 고척로52길 22",37.5042561000,126.8560202000
300,100,2,1,고척대우아파트,"서울특별시 구로구 고척로52길 53",37.5035244000,126.8566316000
300,100,2,1,한빛파크빌,"서울특별시 마포구 마포대로14가길 4-7",37.5488714000,126.9564863000
300,100,2,1,영명빌딩,"서울특별시 마포구 마포대로8길 9",37.5466124000,126.9539307000
300,100,2,1,재원빌딩,"서울특별시 마포구 마포대로11길 29",37.5488734000,126.9524824000
300,100,2,1,호성넥스빌,"서울특별시 마포구 효창원로95길 45",37.5482686000,126.9614458000
300,100,2,1,미네뜨오피스텔,"서울특별시 마포구 만리재로 111",37.5500762000,126.9603254000
300,100,2,1,세종파크빌리지,"서울특별시 마포구 마포대로14가길 8-16",37.5489637000,126.9566970000
300,100,2,1,아마스빌딩,"서울특별시 마포구 만리재옛길 98",37.5508693000,126.9611028000
300,100,2,1,KPX빌딩,"서울특별시 마포구 마포대로 137",37.5467933000,126.9526142000
300,100,2,0,대성힐스오피스텔,"서울특별시 마포구 만리재로 109",37.5498494000,126.9601403000
300,100,2,0,공덕스카이아파트,"서울특별시 마포구 만리재로 119",37.5506849000,126.9609849000
300,100,2,0,호수빌딩,"서울특별시 노원구 동일로 1102",37.6282863000,127.0720000000
300,100,2,0,화랑빌B,"서울특별시 노원구 노원로1길 90",37.6208221000,127.0822822000
300,100,2,0,해성빌라,"서울특별시 노원구 공릉로32길 24-5",37.6215755000,127.0804932000
300,100,2,0,환희빌라트,"서울특별시 노원구 동일로177길 14",37.6209475000,127.0735918000
300,100,2,0,현대파크빌,"서울특별시 노원구 동일로176길 47-10",37.6208464000,127.0777549000
300,100,2,0,풍산빌라,"서울특별시 노원구 동일로184길 19-9",37.6243836000,127.0745002000
300,100,2,0,평보빌딩,"서울특별시 노원구 공릉로34길 10-2",37.6223524000,127.0797785000
300,100,2,0,진주빌라,"서울특별시 노원구 공릉로 169-7",37.6250880000,127.0793984000
300,100,2,0,지원빌딩,"서울특별시 노원구 동일로177길 9",37.6208225000,127.0738873000
300,100,2,0,탑스빌아파트,"서울특별시 노원구 동일로186길 75",37.6255879000,127.0769398000
300,100,2,0,태주빌딩,"서울특별시 노원구 동일로 1018",37.6209943000,127.0748719000
300,100,2,0,이화빌라,"서울특별시 노원구 공릉로 173-4",37.6255611000,127.0793420000
300,100,2,0,임성빌딩,"서울특별시 노원구 동일로173가길 95",37.6224897000,127.0722195000
300,100,2,0,장미빌라,"서울특별시 노원구 공릉로20가길 10",37.6198841000,127.0791207000
300,100,2,0,에이스빌,"서울특별시 노원구 동일로176길 19-10",37.6206116000,127.0761381000
300,100,2,0,영진빌딩,"서울특별시 노원구 동일로192길 31",37.6265218000,127.0746361000
300,100,2,0,우성빌라,"서울특별시 노원구 동일로198길 42",37.6291031000,127.0739745000
300,100,2,0,육사아파트,"서울특별시 노원구 화랑로 564",37.6207019000,127.0908811000
300,100,2,0,수정빌라,"서울특별시 노원구 섬밭로 60",37.6221714000,127.0717474000
300,100,2,0,신명아파트,"서울특별시 노원구 동일로191길 36",37.6249805000,127.0708608000
300,100,2,0,신대림아파트,"서울특별시 노원구 동일로193길 8",37.6262949000,127.0720734000
300,100,1,0,씨엘빌딩,"서울특별시 노원구 동일로 1100",37.6281211000,127.0720657000
300,100,1,0,알파로빌,"서울특별시 노원구 동일로173가길 33-1",37.6196743000,127.0729612000
300,100,1,0,에덴빌,"서울특별시 노원구 동일로190길 21",37.6256131000,127.0743466000
300,100,1,0,삼보빌라,"서울특별시 노원구 공릉로 184-6",37.6263799000,127.0797794000
300,100,1,0,상상빌딩,"서울특별시 노원구 공릉로35길 14-25",37.6233002000,127.0780971000
300,100,1,0,서진프라자아파트,"서울특별시 노원구 동일로173가길 115",37.6233537000,127.0719454000
300,100,1,0,럭키빌라,"서울특별시 노원구 동일로190길 43-4",37.6262256000,127.0756129000
300,100,1,0,미르빌,"서울특별시 노원구 화랑로 415-10",37.6175407000,127.0736581000
300,100,1,0,대신빌라,"서울특별시 노원구 공릉로46가길 20",37.6264775000,127.0802609000
300,100,1,0,동신아파트,"서울특별시 노원구 공릉로 213",37.6282488000,127.0768141000
300,100,1,0,덕산빌리지,"서울특별시 노원구 동일로176길 39-5",37.6205039000,127.0769866000
300,100,1,0,둥지빌라,"서울특별시 노원구 동일로192다길 27",37.6280426000,127.0753594000
300,100,1,0,동신빌딩,"서울특별시 노원구 동일로187길 13",37.6239896000,127.0726081000
300,100,1,0,동우빌라,"서울특별시 노원구 공릉로 184-16",37.6262773000,127.0802611000
300,100,1,0,금성빌라,"서울특별시 노원구 동일로186길 67-7",37.6256736000,127.0763671000
300,100,1,0,노원빌라,"서울특별시 노원구 동일로192다길 31",37.6281845000,127.0753316000
300,100,1,0,대동아파트,"서울특별시 노원구 동일로175길 38",37.6198967000,127.0726608000
300,100,1,0,공덕아트빌라,"서울특별시 노원구 동일로190길 34",37.6257690000,127.0752736000
300,100,1,0,공릉2차신도브래뉴아파트,"서울특별시 노원구 동일로193길 7",37.6256388000,127.0719231000
200,100,1,0,"공릉동 진성빌딩","서울특별시 노원구 화랑로51길 20",37.6240918000,127.0896186000
200,100,1,0,공릉풍림아파트,"서울특별시 노원구 섬밭로 139",37.6290944000,127.0671185000
200,100,1,0,광덕아파트,"서울특별시 노원구 동일로180길 48-9",37.6225558000,127.0774977000
200,100,1,0,HS빌딩,"서울특별시 노원구 동일로190길 33-2",37.6260142000,127.0750514000
200,100,1,0,경연빌라,"서울특별시 노원구 동일로176길 29-13",37.6208059000,127.0763890000
200,100,1,0,공릉동한보에센시티아파트,"서울특별시 노원구 공릉로46길 19",37.6281519000,127.0801423000
200,100,1,0,공릉삼익4단지아파트,"서울특별시 노원구 동일로198가길 13",37.6300742000,127.0720532000
200,100,1,0,건양월드빌,"서울특별시 노원구 동일로187길 12-49",37.6247417000,127.0723616000
200,100,1,0,가연하이빌,"서울특별시 강서구 남부순환로11길 72",37.5566829000,126.8149121000
200,100,1,0,공항빌라,"서울특별시 강서구 공항대로7길 20",37.5621204000,126.8126853000
200,100,1,0,공항신성빌딩,"서울특별시 강서구 공항대로 49-2",37.5614295000,126.8130396000
200,100,1,0,다원하이스빌,"서울특별시 강서구 방화대로5다길 35",37.5548848000,126.8139240000
200,100,1,0,다우빌,"서울특별시 강서구 공항대로7나길 6",37.5628054000,126.8130635000
200,100,1,0,금강빌딩,"서울특별시 강서구 방화대로5나길 8",37.5552573000,126.8160626000
200,100,1,0,미래스타빌,"서울특별시 강서구 방화대로5다길 23",37.5549546000,126.8146335000
200,100,1,0,아울빌,"서울특별시 강서구 공항대로13길 20-19",37.5622565000,126.8142373000
200,100,1,0,스마트빌,"서울특별시 강서구 방화대로7다길 9-9",37.5570212000,126.8152218000
200,100,1,0,스카이빌라,"서울특별시 강서구 공항대로13길 24",37.5621570000,126.8137732000
200,100,1,0,송정아트빌,"서울특별시 강서구 송정로4길 50-10",37.5579622000,126.8136542000
200,200,1,0,성연빌딩,"서울특별시 강서구 공항대로 44",37.5609417000,126.8120985000
200,200,1,0,우성빌딩,"서울특별시 강서구 공항대로 38-8",37.5607277000,126.8118896000
200,200,1,0,영화빌라,"서울특별시 강서구 송정로 13-6",37.5565617000,126.8118519000
200,200,1,0,조영아트빌,"서울특별시 강서구 남부순환로11가길 116",37.5588016000,126.8134957000
200,200,1,0,이스카이오피스텔,"서울특별시 강서구 공항대로 18-1",37.5609671000,126.8091449000
200,200,1,0,웰스파크빌,"서울특별시 강서구 방화대로7나길 14",37.5567179000,126.8150426000
200,200,1,0,축복빌딩,"서울특별시 강서구 송정로 48",37.5591496000,126.8105948000
200,200,1,0,케이앤와이빌리지,"서울특별시 강서구 송정로 65-5",37.5605174000,126.8095847000
200,200,1,0,경보빌딩,"서울특별시 종로구 수표로 93",37.5695529000,126.9893238000
200,200,1,0,관수빌딩,"서울특별시 종로구 수표로18길 6-6",37.5690736000,126.9898779000
200,200,1,0,자산빌딩,"서울특별시 종로구 수표로18가길 4",37.5692038000,126.9903140000
200,200,1,0,시사빌딩,"서울특별시 종로구 삼일대로17길 16",37.5692965000,126.9866683000
200,200,1,0,광교빌딩,"서울특별시 종로구 우정국로 2",37.5691610000,126.9831261000
200,200,1,0,"동북아 스위트힐아파트","서울특별시 광진구 아차산로78길 53",37.5515866000,127.1098376000
200,200,1,0,광나루현대아파트,"서울특별시 광진구 아차산로76길 27",37.5469662000,127.1079520000
200,200,1,0,광성빌딩,"서울특별시 광진구 광장로 78",37.5476114000,127.1056376000
200,200,1,0,워커힐리버빌,"서울특별시 광진구 아차산로78가길 3",37.5497455000,127.1096726000
200,200,1,0,현대아파트(상가동),"서울특별시 광진구 아차산로 503",37.5419237000,127.0974404000
200,200,1,0,중원빌딩,"서울특별시 광진구 워커힐로 3",37.5429652000,127.0944415000
200,200,1,0,명봉빌딩,"서울특별시 중구 장충단로 221",37.5646800000,127.0069533000
200,200,1,0,광희빌딩,"서울특별시 중구 퇴계로 307",37.5643045000,127.0057454000
200,200,1,0,가은빌라,"서울특별시 종로구 진흥로22가길 32-6",37.6054641000,126.9583905000
200,200,1,0,예반시티빌라,"서울특별시 종로구 비봉1길 18-3",37.6098591000,126.9555618000
200,200,1,0,앱솔루트밸류빌딩,"서울특별시 종로구 진흥로 457",37.6071124000,126.9591653000
200,200,1,0,데스떼빌리지,"서울특별시 종로구 비봉길 68-22",37.6138229000,126.9569530000
200,200,3,0,동진스위트빌라,"서울특별시 종로구 진흥로 438-5",37.6076402000,126.9566729000
200,200,3,0,부광빌라,"서울특별시 종로구 세검정로9길 77",37.6062630000,126.9595642000
200,200,3,0,한솔리더빌,"서울특별시 종로구 진흥로 472",37.6060685000,126.9600830000
200,200,3,0,힐탑빌라,"서울특별시 종로구 진흥로21길 13",37.6088335000,126.9582072000
200,200,3,0,KT텔레캅빌딩,"서울특별시 구로구 가마산로 291",37.4973614000,126.8922141000
200,200,3,0,SR친오애주상복합아파트,"서울특별시 구로구 가마산로 286",37.4966207000,126.8921743000
200,200,3,0,강남빌라,"서울특별시 구로구 구로동로40길 13",37.4959699000,126.8834899000
200,200,3,0,구로신협빌딩,"서울특별시 구로구 공원로 71",37.5028056000,126.8883166000
200,200,3,0,궁전아트빌라,"서울특별시 구로구 구로동로12길 59-8",37.4891238000,126.8865808000
200,200,3,0,나라빌딩,"서울특별시 구로구 디지털로32가길 98",37.4797479000,126.8960492000
200,200,3,0,다보빌,"서울특별시 구로구 구로동로42길 14-3",37.4963829000,126.8833510000
200,200,3,0,다인빌딩,"서울특별시 구로구 구로중앙로18길 71",37.4963927000,126.8924348000
200,200,3,0,대림아트빌,"서울특별시 구로구 가마산로20다길 22-10",37.4919658000,126.8874144000
200,200,3,0,대성빌딩,"서울특별시 구로구 디지털로32가길 46-5",37.4816070000,126.8975688000
200,200,3,0,도림빌딩,"서울특별시 구로구 새말로 81",37.5051449000,126.8889160000
200,200,3,0,동도아르떼빌아파트,"서울특별시 구로구 가마산로27길 34",37.4984454000,126.8913133000
200,200,3,0,동헌빌딩,"서울특별시 구로구 가마산로 244",37.4946007000,126.8880523000
200,200,3,0,로얄그린빌,"서울특별시 구로구 구로동로35가길 10",37.4942525000,126.8822782000
200,200,3,0,리오파크빌,"서울특별시 구로구 구로중앙로19가길 14",37.4940003000,126.8889679000
200,200,3,0,명지빌딩,"서울특별시 구로구 공원로8길 30-9",37.5031306000,126.8914060000
200,200,3,0,무성빌라,"서울특별시 구로구 구로동로8길 18-9",37.4866516000,126.8867529000
200,200,3,0,방현빌라,"서울특별시 구로구 구로동로12길 59-12",37.4889557000,126.8863323000
200,200,3,0,보광아파트,"서울특별시 구로구 가마산로 231",37.4958769000,126.8857722000
200,200,3,0,부일빌라,"서울특별시 구로구 구로동로8길 81-5",37.4892839000,126.8874072000
200,200,3,0,삼성드림빌,"서울특별시 구로구 가마산로22길 27",37.4932357000,126.8879890000
200,200,3,0,삼성래미안아파트,"서울특별시 구로구 디지털로31길 90",37.4875908000,126.8919379000
200,200,3,0,삼성월드빌라,"서울특별시 구로구 구로동로13길 29",37.4871825000,126.8832730000
200,200,3,0,새솔금호아파트,"서울특별시 구로구 공원로 35",37.5000947000,126.8904472000
200,200,3,0,성은빌라,"서울특별시 구로구 시흥대로161가길 17",37.4801803000,126.8980412000
200,200,3,0,세명빌라,"서울특별시 구로구 구로동로15길 13-9",37.4874096000,126.8840506000
200,200,3,0,수도빌라,"서울특별시 구로구 구로동로22길 88-1",37.4880098000,126.8885580000
200,200,3,0,승일아트빌,"서울특별시 구로구 구로중앙로21길 70",37.4954048000,126.8845638000
200,200,3,0,씨제이씨아트빌,"서울특별시 구로구 가마산로20라길 20-9",37.4913512000,126.8878249000
200,200,3,0,안정빌라,"서울특별시 구로구 구로동로12길 59-14",37.4888857000,126.8862814000
200,200,3,0,영광빌라,"서울특별시 구로구 구로동로18길 58",37.4871600000,126.8876033000
200,200,3,0,영화참마음아파트,"서울특별시 구로구 구일로8길 79",37.4970864000,126.8736832000
200,200,3,0,오아시스빌딩,"서울특별시 구로구 디지털로32길 97-10",37.4832525000,126.9009804000
200,200,3,0,유명빌딩,"서울특별시 구로구 구로동로22길 8-5",37.4892784000,126.8849927000
200,200,3,0,이강빌라,"서울특별시 구로구 구로동로12길 16-4",37.4872947000,126.8858610000
200,200,3,0,재현빌딩,"서울특별시 구로구 경인로54길 15",37.5012226000,126.8783072000
200,200,3,0,조우네오빌딩,"서울특별시 구로구 시흥대로161길 24",37.4798214000,126.8980566000
200,200,3,0,중앙구로하이츠아파트,"서울특별시 구로구 구일로8길 92",37.4970779000,126.8759093000
200,200,3,0,진명빌딩,"서울특별시 구로구 구로중앙로34길 30",37.5005817000,126.8846243000
200,200,3,0,창인빌딩,"서울특별시 구로구 공원로8길 53",37.5040868000,126.8919592000
200,200,3,0,청암하이츠빌B,"서울특별시 구로구 새말로 38-19",37.5026029000,126.8852887000
200,200,3,0,청원아트빌라,"서울특별시 구로구 구로동로13길 34-5",37.4875387000,126.8829840000
200,200,3,0,태원빌딩,"서울특별시 구로구 구로중앙로32길 12",37.4992186000,126.8850652000
200,200,3,1,텍송빌딩,"서울특별시 구로구 도림로 82",37.4899380000,126.8925072000
200,200,3,1,하이빌3차,"서울특별시 구로구 구로동로42길 6",37.4960319000,126.8830008000
200,200,3,1,한영캐슬시티,"서울특별시 구로구 디지털로26길 90",37.4810828000,126.8967832000
200,200,3,1,행운빌,"서울특별시 구로구 구로중앙로14길 37-13",37.4942619000,126.8921501000
200,200,3,1,현대아트빌,"서울특별시 구로구 디지털로35길 28",37.4875468000,126.8959014000
200,200,3,1,현대파크빌,"서울특별시 구로구 공원로 41",37.5003843000,126.8898944000
200,200,3,1,혜성빌딩,"서울특별시 구로구 도림로 90",37.4903971000,126.8934458000
200,200,3,1,희원빌라,"서울특별시 구로구 디지털로32가길 79",37.4801406000,126.8971899000
200,200,3,1,구산야긴하이빌2,"서울특별시 은평구 서오릉로21길 25-9",37.6140364000,126.9070723000
200,200,3,1,금강블루빌,"서울특별시 은평구 갈현로17나길 28",37.6092972000,126.9100128000
200,200,3,1,갤러리아빌,"서울특별시 은평구 서오릉로25길 17",37.6168006000,126.9046776000
200,200,3,1,대성빌라,"서울특별시 은평구 연서로11길 12-4",37.6085663000,126.9140966000
200,200,3,1,대영월드빌A,"서울특별시 은평구 연서로13길 24-4",37.6104307000,126.9136885000
200,200,3,1,뉴아름빌,"서울특별시 은평구 갈현로17나길 29",37.6090666000,126.9102726000
200,200,3,1,금광포란재아파트,"서울특별시 은평구 서오릉로21길 34-20",37.6136671000,126.9053621000
200,200,3,1,보성리엔빌,"서울특별시 은평구 서오릉로 157-15",37.6113589000,126.9158285000
200,200,3,1,동양아파트,"서울특별시 은평구 연서로9길 16",37.6076048000,126.9133880000
200,200,3,1,동익파크아파트,"서울특별시 은평구 서오릉로21길 20",37.6149727000,126.9070632000
200,200,3,1,부창빌라,"서울특별시 은평구 갈현로 143-1",37.6109029000,126.9110149000
200,200,3,1,삼성하이빌,"서울특별시 은평구 서오릉로25가길 3-4",37.6174350000,126.9054776000
200,200,3,1,명진하이빌,"서울특별시 은평구 갈현로 169-11",37.6133658000,126.9105891000
200,200,3,1,미래씨티빌,"서울특별시 은평구 갈현로17나길 9",37.6108783000,126.9104744000
200,200,3,1,무지개아파트,"서울특별시 은평구 서오릉로27길 26-2",37.6172794000,126.9037282000
200,200,3,1,신양그린빌,"서울특별시 은평구 서오릉로17길 20-10",37.6134532000,126.9076558000
200,200,3,1,아느칸빌라,"서울특별시 은평구 연서로15길 23-1",37.6110265000,126.9141656000
200,200,3,1,새천년드림아파트,"서울특별시 은평구 갈현로 166",37.6127207000,126.9116660000
500,200,3,1,성우쉐르빌,"서울특별시 은평구 연서로13길 19-5",37.6095385000,126.9138599000
500,200,3,1,움트리빌라,"서울특별시 은평구 서오릉로13길 10-4",37.6122749000,126.9131051000
500,200,3,1,캐슬아파트,"서울특별시 은평구 연서로13길 29-32",37.6090690000,126.9129264000
500,200,3,1,장미빌라,"서울특별시 은평구 갈현로17길 7",37.6114950000,126.9105857000
500,200,3,1,진성아파트,"서울특별시 은평구 서오릉로21길 15-2",37.6144463000,126.9072903000
500,200,3,1,웨스턴빌,"서울특별시 은평구 서오릉로17길 7",37.6142587000,126.9087156000
500,200,3,1,한솔빌라,"서울특별시 은평구 서오릉로13길 12",37.6119717000,126.9133264000
500,200,3,1,한미빌라,"서울특별시 은평구 서오릉로21길 25-12",37.6137761000,126.9072128000
500,200,3,1,타운힐스빌,"서울특별시 은평구 서오릉로13길 9-9",37.6119599000,126.9139477000
500,200,3,1,청마빌딩,"서울특별시 은평구 서오릉로 271",37.6182279000,126.9058502000
500,200,3,1,홍문빌라,"서울특별시 은평구 서오릉로21길 23",37.6142712000,126.9068268000
500,200,3,1,영풍아파트,"서울특별시 마포구 토정로 198",37.5450030000,126.9329790000
500,200,3,1,정우빌딩,"서울특별시 마포구 토정로 195-1",37.5455164000,126.9328425000
500,200,3,1,대건빌딩,"서울특별시 마포구 토정로14길 10",37.5449206000,126.9323879000
500,200,3,1,현대아트빌라,"서울특별시 광진구 광나루로32길 15",37.5444233000,127.0836396000
500,200,3,1,화이트빌리지,"서울특별시 광진구 자양로41길 30",37.5505817000,127.0890205000
500,200,3,1,현주그린빌,"서울특별시 광진구 자양로50길 20",37.5519934000,127.0934874000
500,200,3,1,현대아트빌라,"서울특별시 광진구 자양로52길 7",37.5531504000,127.0938120000
500,200,3,1,현대파크빌,"서울특별시 광진구 자양로48길 26",37.5512306000,127.0935836000
500,200,3,1,현대하이츠빌라,"서울특별시 광진구 아차산로58나길 7-7",37.5354724000,127.0899113000
500,200,3,1,혜성아트빌,"서울특별시 광진구 천호대로131길 18",37.5515939000,127.0912054000
500,200,3,1,항석빌딩,"서울특별시 광진구 자양로 201",37.5456100000,127.0853933000
500,200,3,1,해피인빌,"서울특별시 광진구 자양로28길 93-8",37.5419100000,127.0896812000
500,200,3,1,현대그랑빌,"서울특별시 광진구 천호대로136길 29",37.5481322000,127.0908590000
500,200,3,1,현대빌라,"서울특별시 광진구 자양로51길 11-6",37.5535360000,127.0925655000
500,200,3,1,현대아트빌,"서울특별시 광진구 천호대로137길 36",37.5505636000,127.0937362000
500,200,3,1,플러스빌,"서울특별시 광진구 자양로23나길 11",37.5422391000,127.0823532000
500,200,3,1,한성빌라,"서울특별시 광진구 자양로44다길 11",37.5503166000,127.0953088000
500,200,3,1,태운빌라,"서울특별시 광진구 구의강변로3길 27",37.5361378000,127.0906485000
500,200,3,1,테크노빌라,"서울특별시 광진구 아차산로62길 14-18",37.5386584000,127.0928032000
500,200,3,1,파랑새빌라,"서울특별시 광진구 영화사로11길 13",37.5553871000,127.0939019000
500,200,3,1,파크빌,"서울특별시 광진구 자양로26길 39-7",37.5417316000,127.0862604000
500,200,3,1,평강오피스텔,"서울특별시 광진구 구의강변로 27",37.5333567000,127.0913119000
500,200,3,1,청목파크빌,"서울특별시 광진구 영화사로 85",37.5548978000,127.0954835000
500,200,3,1,윤성빌,"서울특별시 광진구 구의강변로7길 3",37.5380830000,127.0933304000
500,200,3,1,정일빌딩,"서울특별시 광진구 아차산로55길 30",37.5387322000,127.0866309000
500,200,3,1,주성힐스톤아파트,"서울특별시 광진구 광나루로44길 20",37.5435291000,127.0911795000
500,200,3,1,지민빌딩,"서울특별시 광진구 아차산로 479",37.5408101000,127.0948527000