resource_id,site_id,type,plan,range,name,address,latitude,longitude
1,5,1,60,400,욱현빌딩,"서울특별시 광진구 자양로 312",37.5531081000,127.0934216000
1,5,1,60,400,은진빌라,"서울특별시 광진구 천호대로134길 40",37.5478732000,127.0891881000
1,5,1,60,400,"월드맨션빌 B","서울특별시 광진구 아차산로65길 59",37.5421215000,127.0920493000
1,5,1,60,400,이화아트빌리지,"서울특별시 광진구 영화사로13길 30",37.5554343000,127.0950009000
1,5,1,60,400,일주빌라,"서울특별시 광진구 자양로32길 47",37.5443354000,127.0877714000
1,5,1,60,400,욱현하이브빌,"서울특별시 광진구 자양로48길 13",37.5514841000,127.0929191000
1,5,1,60,400,원일빌딩,"서울특별시 광진구 자양로50길 54",37.5524818000,127.0953139000
1,5,1,60,400,승원빌딩,"서울특별시 광진구 자양로 228",37.5469598000,127.0877426000
1,5,1,60,400,수협빌딩,"서울특별시 광진구 자양로 150",37.5409498000,127.0838433000
1,5,1,60,400,스톤빌,"서울특별시 광진구 천호대로132길 15-1",37.5499292000,127.0895641000
1,5,1,60,400,신흥아트빌,"서울특별시 광진구 자양로44나길 39",37.5514272000,127.0945479000
1,5,1,60,400,성우그랜드빌,"서울특별시 광진구 자양로53길 14",37.5543238000,127.0932584000
1,5,1,60,400,선경빌라트,"서울특별시 광진구 자양로 306",37.5526194000,127.0930860000
1,5,1,60,400,세양아파트,"서울특별시 광진구 구의강변로 84",37.5375424000,127.0940124000
1,5,1,60,400,성동빌리지,"서울특별시 광진구 아차산로55길 61",37.5402090000,127.0864195000
1,5,1,60,400,솔렌시아2,"서울특별시 광진구 자양로 172",37.5430216000,127.0847230000
1,5,1,60,400,새일빌라,"서울특별시 광진구 광나루로52길 43",37.5402905000,127.0933434000
1,5,1,60,400,서룡빌라,"서울특별시 광진구 영화사로 83",37.5548732000,127.0951723000
1,5,1,60,400,선경쉐르빌,"서울특별시 광진구 천호대로135길 10-14",37.5496585000,127.0928388000
1,5,1,60,400,삼보그린빌라,"서울특별시 광진구 아차산로55길 67",37.5403685000,127.0864959000
1,5,1,60,400,삼성로얄아파트,"서울특별시 광진구 영화사로 87",37.5549104000,127.0956614000
1,5,1,60,400,삼성베스트빌26차,"서울특별시 광진구 광나루로38길 16",37.5440215000,127.0880854000
1,5,1,60,400,삼성하이츠빌라,"서울특별시 광진구 자양로50길 43",37.5525290000,127.0947624000
1,5,1,60,400,무지개빌라,"서울특별시 광진구 자양로37가길 7",37.5476359000,127.0874414000
1,5,1,60,400,베델아트빌라,"서울특별시 광진구 자양로51길 18",37.5538633000,127.0927501000
1,5,1,60,400,부광아인스빌,"서울특별시 광진구 광나루로46길 24-7",37.5427137000,127.0919623000
1,5,1,60,400,리갈빌딩,"서울특별시 광진구 자양로 160",37.5418894000,127.0842500000
1,5,1,60,400,리치빌,"서울특별시 광진구 자양로45길 18-1",37.5521362000,127.0915086000
1,5,1,60,400,명상빌라,"서울특별시 광진구 천호대로134길 23",37.5483469000,127.0900924000
1,5,1,60,400,명진빌,"서울특별시 광진구 자양로30길 72",37.5429286000,127.0888687000
1,5,1,60,400,동서화운트빌,"서울특별시 광진구 자양로38길 37-39",37.5473525000,127.0904253000
1,5,1,60,400,동우아파트,"서울특별시 광진구 자양로 304",37.5524861000,127.0929801000
1,5,1,60,400,동서화운트빌,"서울특별시 광진구 광나루로38길 43",37.5428334000,127.0878630000
1,5,1,60,400,라임아트빌,"서울특별시 광진구 광나루로30나길 18-10",37.5432592000,127.0823791000
1,5,1,60,400,덕우빌딩,"서울특별시 광진구 아차산로 383",37.5371419000,127.0853373000
1,5,1,60,400,대원베스트빌,"서울특별시 광진구 광나루로37길 31",37.5461879000,127.0883197000
1,5,1,60,400,동산캐슬,"서울특별시 광진구 아차산로55길 47",37.5395272000,127.0863187000
1,5,1,60,400,대림빌라,"서울특별시 광진구 아차산로59길 54-4",37.5407073000,127.0910195000
1,5,1,60,400,대성리센츠빌,"서울특별시 광진구 자양로52길 17",37.5528645000,127.0943091000
1,5,1,60,400,다성그린빌,"서울특별시 광진구 자양로44다길 29-6",37.5512627000,127.0960350000
1,5,1,60,400,대운빌딩,"서울특별시 광진구 자양로 278",37.5506258000,127.0914575000
1,5,1,60,400,대원스마트빌,"서울특별시 광진구 천호대로132길 39",37.5492044000,127.0886360000
1,5,0,60,400,그랜드빌예지빌라,"서울특별시 광진구 구의강변로3길 36",37.5365326000,127.0905655000
1,5,0,60,400,남양빌라,"서울특별시 광진구 아차산로49길 73",37.5401309000,127.0841012000
1,5,0,60,400,뉴청광휴먼빌,"서울특별시 광진구 자양로38길 37-12",37.5470019000,127.0906482000
1,5,0,60,400,그린아트빌라,"서울특별시 광진구 자양로44다길 8",37.5501885000,127.0957007000
1,5,0,60,400,극동하이빌,"서울특별시 광진구 구의로4길 22",37.5399176000,127.0908920000
1,5,0,60,400,"구의 오크빌","서울특별시 광진구 구의로 38",37.5412574000,127.0900461000
1,5,0,60,400,구의7단지조합현대아파트,"서울특별시 광진구 구의강변로3가길 39",37.5365108000,127.0913925000
1,5,0,60,400,구의동강변우성아파트,"서울특별시 광진구 구의강변로 42",37.5351788000,127.0927033000
1,5,0,60,400,구의빌라,"서울특별시 광진구 자양로32길 8",37.5442748000,127.0855776000
1,5,0,60,400,KD빌라,"서울특별시 광진구 구의로 47-11",37.5425689000,127.0896274000
1,5,0,60,400,거송빌딩,"서울특별시 광진구 자양로18길 56",37.5379776000,127.0866659000
1,5,0,60,400,Y.N빌라(I),"서울특별시 광진구 광나루로35길 16",37.5456335000,127.0870677000
1,5,0,60,400,가온빌,"서울특별시 광진구 광나루로44길 27",37.5430614000,127.0916422000
1,5,0,60,400,군자위드빌,"서울특별시 광진구 광나루로13길 32",37.5496167000,127.0689811000
1,5,0,60,400,광산빌딩,"서울특별시 광진구 동일로 304",37.5582630000,127.0734918000
1,5,0,60,400,무지개빌라,"서울특별시 광진구 동일로52길 15-12",37.5549611000,127.0724213000
1,5,0,60,400,미성아트빌,"서울특별시 광진구 천호대로102길 27",37.5577958000,127.0738311000
1,5,0,60,400,두현빌딩,"서울특별시 광진구 동일로 292",37.5573172000,127.0729235000
1,5,0,60,400,덕산빌딩,"서울특별시 광진구 면목로 38",37.5575014000,127.0767804000
1,5,0,60,400,다온빌딩,"서울특별시 광진구 능동로31길 12-7",37.5560753000,127.0779718000
1,5,0,60,400,세종빌,"서울특별시 광진구 면목로 5",37.5547686000,127.0750736000
1,5,0,60,400,송정빌라,"서울특별시 광진구 광나루로15길 44",37.5501331000,127.0700702000
1,5,0,60,400,홍익봄마을아파트,"서울특별시 광진구 동일로34길 27",37.5498972000,127.0701452000
1,5,0,60,400,플러스아트빌,"서울특별시 광진구 동일로56다길 6",37.5556535000,127.0747283000
1,5,0,60,400,풍국빌라,"서울특별시 광진구 동일로52길 13",37.5546860000,127.0720547000
1,5,0,60,400,지성빌딩,"서울특별시 광진구 능동로29길 7",37.5544487000,127.0773363000
1,5,0,60,400,우송빌라,"서울특별시 광진구 동일로54길 15-8",37.5556380000,127.0728030000
1,5,0,60,400,한마음트윈빌,"서울특별시 구로구 오리로22길 31-5",37.4993553000,126.8309721000
1,5,0,60,400,현대3차별장빌라,"서울특별시 구로구 부일로9길 116-5",37.4973703000,126.8232854000
1,5,0,60,400,흥일하이츠빌라,"서울특별시 구로구 부일로17길 149",37.4983334000,126.8300184000
1,5,0,60,400,유앤미빌리지104동,"서울특별시 구로구 오리로22나길 16-18",37.4998134000,126.8315368000
1,5,0,60,400,중앙하이츠빌,"서울특별시 구로구 부일로15나길 19-16",37.4954541000,126.8332634000
1,5,0,60,400,태림빌라,"서울특별시 구로구 오리로20길 63",37.4983341000,126.8305879000
1,5,0,60,400,선우쉐르빌아파트,"서울특별시 구로구 부일로15길 63",37.4951257000,126.8317045000
1,5,0,60,400,성문빌딩,"서울특별시 구로구 오리로 1301",37.4975457000,126.8289331000
1,5,0,60,400,동오그린빌라트,"서울특별시 구로구 오리로17길 40",37.4964639000,126.8292029000
1,5,0,60,400,미도빌라,"서울특별시 구로구 부일로17길 112",37.4966713000,126.8307788000
1,5,0,60,400,보강빌라,"서울특별시 구로구 오리로17길 77-11",37.4979734000,126.8279377000
1,5,0,60,400,삼성그린빌,"서울특별시 구로구 오리로22나길 16-25",37.5001770000,126.8317374000
1,5,0,60,400,서현아트빌,"서울특별시 구로구 오리로22나길 6-9",37.4990399000,126.8305816000
1,5,0,60,400,다청림아파트,"서울특별시 구로구 오리로20길 52",37.4981838000,126.8311532000
1,5,0,60,400,대림빌라,"서울특별시 구로구 오리로22길 46-11",37.4994663000,126.8321132000
1,5,0,60,400,대명파크빌,"서울특별시 구로구 부일로13길 74",37.4963100000,126.8320674000
1,5,0,60,400,대주빌라,"서울특별시 구로구 부일로11길 32",37.4946594000,126.8316274000
1,5,0,60,400,동근빌라,"서울특별시 구로구 부일로11길 122",37.4983666000,126.8298486000
1,5,0,60,400,동오그린빌라트,"서울특별시 구로구 오리로17길 59",37.4972488000,126.8285263000
1,5,0,60,400,강남그린아파트,"서울특별시 구로구 오리로20길 28",37.4971800000,126.8311187000
1,7,0,60,400,낙원빌라,"서울특별시 구로구 오리로 1266-1",37.4948179000,126.8308989000
1,7,0,60,400,금화신금호아파트,"서울특별시 성동구 행당로 31-43",37.5565201000,127.0230090000
1,7,0,60,400,배수지4차빌라,"서울특별시 성동구 금호로16길 17-4",37.5571398000,127.0208660000
1,7,0,60,400,진영빌라,"서울특별시 성동구 금호산9가길 59-22",37.5534774000,127.0187608000
1,7,0,60,400,롯데아트빌,"서울특별시 성동구 금호산9가길 12-11",37.5510073000,127.0180050000
1,7,0,60,400,금호이도빌,"서울특별시 성동구 무수막1길 8",37.5489336000,127.0249826000
1,7,0,60,400,동산파크빌5차,"서울특별시 성동구 무수막3길 25",37.5498400000,127.0230310000
1,7,0,60,400,두산아파트,"서울특별시 성동구 동호로 100",37.5506428000,127.0164657000
1,7,0,60,400,대우아트빌3차,"서울특별시 성동구 무수막3길 10",37.5493116000,127.0244892000
1,7,0,60,400,삼성빌6차,"서울특별시 성동구 금호산2길 14",37.5486364000,127.0210600000
1,7,0,60,400,이도빌라,"서울특별시 성동구 금호산길 39",37.5516271000,127.0192185000
1,7,0,60,400,퍼스트빌2,"서울특별시 성동구 금호산길 34",37.5511020000,127.0194978000
1,7,0,60,400,리버마이다스빌,"서울특별시 성동구 독서당로 336",37.5477337000,127.0264487000
1,7,0,60,400,재호예향빌,"서울특별시 성동구 독서당로 265",37.5468298000,127.0188364000
1,7,0,60,400,설당빌딩,"서울특별시 성동구 장터길 24",37.5482015000,127.0185751000
1,7,0,60,400,가온누리빌,"서울특별시 강동구 양재대로110길 19",37.5354988000,127.1404638000
1,7,0,60,400,강연빌,"서울특별시 강동구 명일로 200-23",37.5368774000,127.1470174000
1,7,0,60,400,골든빌,"서울특별시 강동구 명일로26길 5",37.5429776000,127.1479727000
1,7,0,60,400,광암빌딩,"서울특별시 강동구 명일로 197",37.5364544000,127.1455111000
1,7,0,60,400,길조빌딩,"서울특별시 강동구 천중로 227",37.5408770000,127.1457278000
1,7,0,60,400,길동블루빌,"서울특별시 강동구 명일로27길 45",37.5438060000,127.1453064000
2,7,0,60,400,그린파크빌,"서울특별시 강동구 양재대로126길 18",37.5437092000,127.1433966000
2,7,0,60,400,대흥빌라,"서울특별시 강동구 천중로49가길 16",37.5413349000,127.1436848000
2,7,0,60,400,다오아트빌,"서울특별시 강동구 성안로 184",37.5395661000,127.1365740000
2,7,0,60,400,뉴삼성빌,"서울특별시 강동구 천중로48길 19-11",37.5400142000,127.1422837000
2,7,0,60,400,라온오피스텔,"서울특별시 강동구 천중로 199",37.5411044000,127.1424126000
2,7,0,60,400,두원빌,"서울특별시 강동구 명일로18길 25",37.5381631000,127.1478373000
2,7,0,60,400,덕양빌딩,"서울특별시 강동구 천중로50길 35",37.5392700000,127.1426407000
2,7,0,60,400,보람빌라,"서울특별시 강동구 양재대로113길 54",37.5387056000,127.1369802000
2,7,0,60,400,민영빌딩,"서울특별시 강동구 천중로40길 50",37.5388756000,127.1379087000
2,7,0,60,400,미림빌딩,"서울특별시 강동구 천호대로177길 34",37.5359567000,127.1379759000
2,7,0,50,400,서울시산림조합빌딩,"서울특별시 강동구 명일로 243",37.5404606000,127.1467203000
2,7,0,50,400,샹스빌,"서울특별시 강동구 진황도로47길 43",37.5365542000,127.1401823000
2,7,1,50,400,새봄빌라,"서울특별시 강동구 천중로42길 15",37.5402834000,127.1395593000
2,7,1,50,400,삼성그린빌리지,"서울특별시 강동구 천중로50길 48-3",37.5387626000,127.1421235000
2,7,1,50,400,신한아트빌,"서울특별시 강동구 양재대로112길 78-1",37.5356968000,127.1439781000
2,7,1,50,400,신영빌리지,"서울특별시 강동구 천호대로193길 19-1",37.5360868000,127.1445563000
2,7,1,50,400,신동아아파트,"서울특별시 강동구 천중로 254",37.5403408000,127.1485927000
2,7,1,50,400,송진빌딩,"서울특별시 강동구 양재대로116길 7",37.5387472000,127.1409093000
2,7,1,50,400,성은빌딩,"서울특별시 강동구 천중로40길 56",37.5386944000,127.1378514000
2,7,1,50,400,선린빌딩,"서울특별시 강동구 양재대로 1448",37.5350777000,127.1393389000
2,7,1,50,400,예건네스빌,"서울특별시 강동구 천중로49길 63",37.5437432000,127.1435474000
2,7,1,50,400,엠.프라자아파트,"서울특별시 강동구 진황도로49길 59",37.5353134000,127.1431149000
2,7,1,50,400,에스엠이로빌,"서울특별시 강동구 천중로42길 53",37.5386336000,127.1389867000
2,7,1,50,400,양지빌,"서울특별시 강동구 명일로17길 28",37.5387719000,127.1448268000
2,7,1,50,400,이진빌딩,"서울특별시 강동구 명일로26길 12",37.5427032000,127.1482376000
2,7,1,50,400,원진아트빌,"서울특별시 강동구 명일로 195-2",37.5364804000,127.1453623000
2,7,1,50,400,우주빌딩,"서울특별시 강동구 성안로 156",37.5368812000,127.1354283000
2,7,1,50,400,우보빌라트,"서울특별시 강동구 천호대로187길 53-12",37.5369877000,127.1423849000
2,7,1,50,400,진성파크빌,"서울특별시 강동구 천중로40길 27",37.5397759000,127.1385967000
2,7,1,50,400,지상원룸빌,"서울특별시 강동구 천호대로197길 38-9",37.5377719000,127.1474174000
2,7,1,50,400,재성빌딩,"서울특별시 강동구 천호대로187길 38",37.5359263000,127.1428872000
2,7,1,50,400,한빛아파트,"서울특별시 강동구 성안로 170",37.5380418000,127.1360493000
2,7,1,50,400,태영빌딩,"서울특별시 강동구 양재대로 1548",37.5436880000,127.1425064000
2,7,1,50,400,코튼빌딩,"서울특별시 강동구 천중로 201",37.5410867000,127.1425825000
2,7,1,50,400,태성아파트,"서울특별시 강동구 명일로17길 40",37.5390802000,127.1442475000
2,7,1,50,400,호석빌딩,"서울특별시 강동구 양재대로 1498",37.5393144000,127.1409212000
2,7,1,50,400,행복한그린빌,"서울특별시 강동구 명일로 196-1",37.5363797000,127.1461057000
2,7,1,50,400,대일하이츠빌라,"서울특별시 성북구 삼양로9길 13-20",37.6078752000,127.0223552000
2,7,1,50,400,학동빌딩,"서울특별시 성북구 도봉로 23",37.6113993000,127.0300398000
2,7,1,50,400,서우철강빌딩,"서울특별시 성북구 동소문로 231",37.6028701000,127.0223893000
2,7,1,50,400,대성빌딩,"서울특별시 종로구 수표로28길 5",37.5729186000,126.9887298000
2,7,1,50,400,낙원빌딩,"서울특별시 종로구 종로17길 52",37.5724513000,126.9885139000
2,7,1,50,400,조양빌딩,"서울특별시 종로구 종로17길 50",37.5723808000,126.9884413000
2,7,1,50,400,트윈빌A,"서울특별시 서대문구 명지대1나길 10",37.5810351000,126.9224934000
2,7,1,50,400,한성빌라,"서울특별시 서대문구 증가로12가길 75",37.5807955000,126.9181441000
2,7,1,50,400,현우빌라,"서울특별시 서대문구 가재울로8길 5-25",37.5759764000,126.9219668000
2,7,1,50,400,원이빌라,"서울특별시 서대문구 가재울로6길 62",37.5767135000,126.9244268000
2,7,1,50,400,은하빌라,"서울특별시 서대문구 명지대1길 28",37.5817419000,126.9239333000
2,7,1,50,400,이화빌라,"서울특별시 서대문구 증가로10길 16-17",37.5784151000,126.9241697000
2,7,1,50,400,청송빌라,"서울특별시 서대문구 명지대5길 10-20",37.5837651000,126.9227690000
2,7,1,50,400,세은빌라,"서울특별시 서대문구 거북골로 59-14",37.5778494000,126.9224498000
2,7,1,50,400,세명파크빌,"서울특별시 서대문구 증가로6길 18-55",37.5771637000,126.9260723000
2,7,1,50,400,신흥아트빌,"서울특별시 서대문구 명지대1다길 11",37.5815304000,126.9231423000
2,7,1,50,400,영진아트빌라,"서울특별시 서대문구 가재울로2안길 30",37.5748998000,126.9243867000
2,7,1,50,400,동림빌딩,"서울특별시 서대문구 모래내로13길 25-3",37.5700147000,126.9170063000
2,7,1,50,400,로하스오피스텔,"서울특별시 서대문구 모래내로 223",37.5743309000,126.9237994000
2,7,1,50,400,명지빌라,"서울특별시 서대문구 명지대1다길 1",37.5816319000,126.9236536000
2,7,1,50,400,건스빌,"서울특별시 서대문구 명지대5길 10-9",37.5833841000,126.9225968000
2,7,1,50,400,고려그린빌,"서울특별시 서대문구 증가로6길 34-28",37.5771404000,126.9264531000
2,7,1,50,400,금성아파트,"서울특별시 서대문구 수색로4가길 12-18",37.5710544000,126.9152844000
2,7,1,50,400,흥국생명빌딩,"서울특별시 중구 남대문로 5",37.5607987000,126.9764390000
2,7,1,50,400,연세대학교세브란스빌딩,"서울특별시 중구 통일로 10",37.5570913000,126.9736575000
2,5,1,50,400,호경빌딩,"서울특별시 중구 퇴계로18길 10",37.5604230000,126.9850472000
2,5,1,50,400,크로스빌딩,"서울특별시 중구 퇴계로20나길 26",37.5580486000,126.9851446000
2,5,1,50,400,대명빌딩,"서울특별시 중구 퇴계로20나길 16",37.5583291000,126.9852542000
2,5,1,50,400,송서스토리빌딩,"서울특별시 중구 남대문시장4길 27-6",37.5587752000,126.9776952000
2,5,1,50,400,"남창동 남선빌딩","서울특별시 중구 퇴계로2길 23",37.5565995000,126.9774991000
2,5,1,50,400,한성빌라,"서울특별시 관악구 남부순환로256길 8",37.4750725000,126.9716269000
2,5,1,50,400,한일빌딩,"서울특별시 관악구 승방2길 2",37.4739693000,126.9813560000
2,5,1,50,400,힐탑빌라,"서울특별시 관악구 남현12길 41",37.4722648000,126.9716651000
2,5,1,50,400,화일빌라,"서울특별시 관악구 남부순환로260가길 17",37.4737118000,126.9728703000
2,5,1,50,400,조은빌,"서울특별시 관악구 남현1가길 42-9",37.4742414000,126.9773408000
2,5,1,50,400,제일빌딩,"서울특별시 관악구 과천대로 949",37.4753453000,126.9813293000
2,5,1,50,400,코리아트빌라,"서울특별시 관악구 승방길 82-8",37.4723005000,126.9773686000
2,5,1,50,400,탑빌하우스,"서울특별시 관악구 남현2길 65-6",37.4750848000,126.9739472000
2,5,1,50,400,하이브아크빌,"서울특별시 관악구 남현길 66-7",37.4739571000,126.9755802000
2,5,1,50,400,한백리츠빌,"서울특별시 관악구 남현2길 81",37.4747127000,126.9733897000
2,5,1,50,400,예촌그린아파트,"서울특별시 관악구 남부순환로256나길 21",37.4726391000,126.9730426000
2,5,1,50,400,우림빌라,"서울특별시 관악구 승방3가길 63",37.4716189000,126.9783120000
2,5,1,50,400,예술인빌라,"서울특별시 관악구 남현6길 37",37.4733730000,126.9745914000
2,5,1,50,400,우리빌남현,"서울특별시 관악구 남부순환로256길 13-11",37.4752007000,126.9725256000
2,5,1,50,400,윈코오피스텔,"서울특별시 관악구 승방길 14",37.4739074000,126.9810719000
2,5,1,50,400,이화빌라,"서울특별시 관악구 승방3길 36-5",37.4720442000,126.9814188000
2,5,1,50,400,삼방빌라,"서울특별시 관악구 남현2길 31-7",37.4754824000,126.9759834000
2,5,1,50,400,세종하이츠아파트,"서울특별시 관악구 남부순환로260길 77",37.4732802000,126.9726280000
2,5,1,50,400,스카이빌리지,"서울특별시 관악구 남현2길 28-5",37.4760312000,126.9756280000
2,5,1,50,400,리더스빌남현2차,"서울특별시 관악구 승방9길 22",37.4718072000,126.9786386000
2,5,1,50,400,메트로빌,"서울특별시 관악구 남부순환로262길 22",37.4751925000,126.9750164000
2,5,1,50,400,삼성뉴타운빌라,"서울특별시 관악구 승방3나길 38",37.4723141000,126.9791479000
2,5,1,50,400,남현빌딩,"서울특별시 관악구 남현1길 26",37.4757670000,126.9788873000
2,5,1,50,400,낭주레이크빌,"서울특별시 관악구 승방길 95",37.4716459000,126.9778032000
2,5,1,50,400,동송하이클래스아파트,"서울특별시 관악구 남부순환로256길 36",37.4741481000,126.9725338000
2,5,1,50,400,관전아트빌,"서울특별시 관악구 남부순환로256나길 16",37.4729898000,126.9730043000
3,5,1,50,400,금강빌라트나동,"서울특별시 관악구 남부순환로256라길 5",37.4727211000,126.9741686000
3,5,1,50,400,무지개아파트,"서울특별시 서초구 신흥말길 79-1",37.4524314000,127.0825895000
3,5,1,50,400,한울자이빌,"서울특별시 강서구 우장산로 11-1",37.5548231000,126.8385586000
3,5,1,50,400,한성아트빌,"서울특별시 강서구 강서로45라길 55-25",37.5502759000,126.8336800000
3,5,1,50,400,효성빌라,"서울특별시 강서구 공항대로36가길 23-58",37.5541735000,126.8321334000
3,5,1,50,400,현웅빌딩,"서울특별시 강서구 공항대로 282",37.5580718000,126.8386987000
3,5,1,50,400,후암아트빌,"서울특별시 강서구 강서로47길 57",37.5528125000,126.8329287000
3,5,1,50,400,진한연립아파트,"서울특별시 강서구 공항대로36가길 25",37.5531439000,126.8342072000
3,5,1,40,400,천우네오젠아파트,"서울특별시 강서구 우장산로 13",37.5547984000,126.8388845000
3,5,1,40,400,타워힐아파트,"서울특별시 강서구 공항대로42길 51-8",37.5549835000,126.8432978000
3,5,1,40,400,청솔숲속마을아파트,"서울특별시 강서구 강서로46길 60",37.5515417000,126.8400875000
3,5,1,40,400,태창빌라,"서울특별시 강서구 강서로45라길 55-12",37.5504594000,126.8338713000
3,5,1,40,400,필빌리지,"서울특별시 강서구 강서로47길 25-12",37.5521987000,126.8345049000
3,5,1,40,400,우장드림빌,"서울특별시 강서구 강서로47다길 42-7",37.5509499000,126.8335569000
3,5,1,40,400,이너스내안에아파트,"서울특별시 강서구 강서로45길 158",37.5521743000,126.8310429000
3,5,1,40,400,이윤빌딩,"서울특별시 강서구 우장산로2길 36",37.5531088000,126.8371228000
3,5,1,40,400,진광빌라,"서울특별시 강서구 강서로47라길 10-4",37.5525570000,126.8317551000
3,5,1,40,400,정우빌딩,"서울특별시 강서구 강서로 275",37.5502653000,126.8360693000
3,5,0,40,400,약수빌라,"서울특별시 강서구 강서로47나길 25",37.5515131000,126.8350352000
3,5,0,40,400,영창아트빌라,"서울특별시 강서구 강서로47가길 28",37.5513437000,126.8354321000
3,5,0,40,400,영주빌라,"서울특별시 강서구 강서로48길 20-6",37.5523714000,126.8375221000
3,5,0,40,400,선일빌라,"서울특별시 강서구 강서로 279-81",37.5501856000,126.8349051000
3,5,0,40,400,시원아트빌,"서울특별시 강서구 강서로 279-69",37.5496128000,126.8348337000
3,5,0,40,400,아트빌,"서울특별시 강서구 우장산로 5-14",37.5550206000,126.8381591000
3,5,0,40,400,부영쉐르빌,"서울특별시 강서구 강서로47바길 34",37.5518617000,126.8301321000
3,5,0,40,400,상산노블레스빌,"서울특별시 강서구 강서로47길 39",37.5527144000,126.8339654000
3,5,0,40,400,성원빌딩,"서울특별시 강서구 공항대로38길 49",37.5573496000,126.8402851000
3,5,0,40,400,세명그린빌,"서울특별시 강서구 강서로47라길 27",37.5519103000,126.8325232000
3,5,0,40,400,마곡수명산파크6단지아파트,"서울특별시 강서구 수명로2길 63",37.5506525000,126.8258189000
3,5,0,40,400,명주빌하모니,"서울특별시 강서구 강서로45라길 55-20",37.5504830000,126.8334343000
3,5,0,40,400,미림칸타빌,"서울특별시 강서구 강서로45나길 11-16",37.5486011000,126.8346733000
3,5,0,40,400,범진빌라,"서울특별시 강서구 우장산로8길 16",37.5536708000,126.8412011000
3,5,0,40,400,대성유니드아파트,"서울특별시 강서구 강서로45길 104",37.5501897000,126.8321964000
3,5,0,40,400,다솜빌라트,"서울특별시 강서구 공항대로36가길 33",37.5531834000,126.8338029000
3,5,0,40,400,대호빌라,"서울특별시 강서구 강서로45길 164",37.5524016000,126.8307357000
3,5,0,40,400,도화엘리시아,"서울특별시 강서구 강서로45나길 59",37.5506863000,126.8353213000
3,5,0,40,400,덕진빌라,"서울특별시 강서구 강서로47라길 19-5",37.5524327000,126.8324726000
3,5,0,40,400,동원빌라,"서울특별시 강서구 강서로45길 96",37.5495533000,126.8322140000
3,5,0,40,400,LEE.S빌원룸,"서울특별시 강서구 우장산로6길 70",37.5532033000,126.8380146000
3,5,0,40,400,광남아파트,"서울특별시 강서구 강서로45나길 60",37.5506519000,126.8358067000
3,5,0,40,400,길성그랑프리텔아파트,"서울특별시 강서구 강서로46길 79",37.5514287000,126.8386843000
3,5,0,40,400,광희빌딩,"서울특별시 종로구 사직로12길 21",37.5749837000,126.9711493000
3,5,0,40,400,영빌딩,"서울특별시 마포구 서강로 138",37.5541483000,126.9359755000
3,5,0,40,400,종로학원빌딩,"서울특별시 마포구 신촌로 118",37.5553386000,126.9387847000
3,5,0,40,400,노들빌라,"서울특별시 동작구 노량진로14길 29-8",37.5123196000,126.9430189000
3,5,0,40,400,거성팔레스빌,"서울특별시 동작구 장승배기로20길 50-1",37.5095562000,126.9425909000
3,5,0,40,400,더코어빌딩,"서울특별시 동작구 장승배기로26길 13",37.5120053000,126.9411686000
3,5,0,40,400,금성빌라,"서울특별시 동작구 만양로13가길 5",37.5098127000,126.9443954000
3,5,0,40,400,산호빌라,"서울특별시 동작구 만양로13길 23",37.5096613000,126.9448526000
3,5,0,40,400,서림빌라,"서울특별시 동작구 만양로14아길 12",37.5119888000,126.9479873000
3,5,0,40,400,백이빌딩,"서울특별시 동작구 노량진로 116",37.5131579000,126.9388653000
3,5,0,40,400,마이-캐슬,"서울특별시 동작구 노량진로6다길 32",37.5092553000,126.9357592000
3,5,0,40,400,신동아리버파크아파트,"서울특별시 동작구 만양로 19",37.5077974000,126.9447636000
3,5,0,40,400,소농빌딩,"서울특별시 동작구 장승배기로26길 19-5",37.5121192000,126.9419495000
3,5,0,40,400,순만빌딩,"서울특별시 동작구 노량진로 169",37.5140804000,126.9448572000
3,5,0,40,400,지에스빌딩,"서울특별시 동작구 노량진로 192",37.5130688000,126.9472084000
3,5,0,40,400,이티앤빌딩,"서울특별시 동작구 장승배기로16길 25",37.5068675000,126.9413473000
3,5,0,40,400,장승빌라,"서울특별시 동작구 장승배기로19라길 22",37.5074556000,126.9365783000
3,5,0,40,400,정호샤인빌,"서울특별시 동작구 장승배기로17길 32",37.5066137000,126.9381585000
3,5,0,40,400,요한빌라,"서울특별시 동작구 장승배기로13길 54",37.5069748000,126.9374525000
3,5,0,40,400,한양아트빌라,"서울특별시 동작구 노량진로6다길 31",37.5092357000,126.9360495000
3,5,0,40,400,현대하이츠빌라,"서울특별시 동작구 만양로13가길 15",37.5093888000,126.9445510000
3,5,0,40,400,평안빌라,"서울특별시 동작구 장승배기로19길 29-3",37.5079150000,126.9383605000
3,5,0,40,400,한빛빌라,"서울특별시 동작구 장승배기로26길 58",37.5110740000,126.9427381000
3,8,0,40,400,한성빌딩,"서울특별시 동작구 노량진로 188",37.5131802000,126.9467655000
3,8,0,40,400,경인에버빌,"서울특별시 은평구 진흥로12나길 6-1",37.6078360000,126.9259165000
3,8,0,40,400,금강블루빌,"서울특별시 은평구 서오릉로6길 3",37.6061863000,126.9237218000
3,8,0,40,400,거성그린빌라,"서울특별시 은평구 은평로21가길 12-1",37.6038451000,126.9301395000
3,8,0,40,400,녹번빌라,"서울특별시 은평구 통일로59길 7",37.6053489000,126.9331947000
3,8,0,40,400,뉴트리빌,"서울특별시 은평구 서오릉로 64-12",37.6064732000,126.9239347000
3,8,0,40,400,명진하이빌,"서울특별시 은평구 진흥로 138-25",37.6068935000,126.9247952000
3,8,0,40,400,동신쉐르빌,"서울특별시 은평구 통일로59길 8-5",37.6054757000,126.9327916000
3,8,0,40,400,수풀빌라,"서울특별시 은평구 진흥로16길 8",37.6098440000,126.9390859000
3,8,0,40,400,삼우렉스빌,"서울특별시 은평구 녹번로3가길 4-6",37.6061151000,126.9278544000
3,8,0,40,400,삼정하이츠빌,"서울특별시 은평구 녹번로7길 20-13",37.6072662000,126.9291386000
3,8,0,40,400,백송에버빌,"서울특별시 은평구 은평로11길 32-1",37.6036613000,126.9235971000
3,8,0,40,400,보성리엔빌,"서울특별시 은평구 녹번로3길 16-26",37.6072980000,126.9273946000
3,8,0,40,400,우진빌라,"서울특별시 은평구 녹번로3길 9",37.6057302000,126.9279159000
3,8,0,40,400,신의쉐르빌,"서울특별시 은평구 진흥로16길 12-1",37.6092345000,126.9391192000
3,8,0,40,400,신한빌딩,"서울특별시 은평구 서오릉로2길 13",37.6024290000,126.9282712000
3,8,0,40,400,서일빌딩,"서울특별시 은평구 은평로 181",37.6018556000,126.9278777000
3,8,0,40,400,주영빌트,"서울특별시 은평구 은평로21길 3-24",37.6016959000,126.9321284000
3,8,0,40,400,진흥빌딩,"서울특별시 은평구 진흥로 160",37.6087446000,126.9274564000
3,8,0,40,400,일광스카이빌,"서울특별시 은평구 진흥로12나길 1-11",37.6075114000,126.9265467000
3,8,0,40,400,연희쉐르빌,"서울특별시 은평구 은평로21가길 20-1",37.6044787000,126.9306953000
3,8,0,40,400,초석빌라,"서울특별시 은평구 통일로 665-8",37.6058954000,126.9332384000
3,8,0,40,400,태경쉐르빌,"서울특별시 은평구 녹번로3가길 26",37.6073826000,126.9290014000
3,8,0,40,400,제현빌딩,"서울특별시 은평구 진흥로 184",37.6082267000,126.9298762000
3,8,0,40,400,호암빌리지,"서울특별시 은평구 은평로11길 17-1",37.6024251000,126.9231733000
3,8,0,40,400,홍익빌라,"서울특별시 은평구 은평로21길 53",37.6030670000,126.9285344000
3,8,0,40,400,한주빌라,"서울특별시 은평구 은평로21길 29",37.6023399000,126.9311045000
3,8,0,40,400,휴롬빌딩,"서울특별시 강남구 도산대로 164",37.5186628000,127.0266504000
3,8,0,40,400,해광빌딩,"서울특별시 강남구 논현로114길 11",37.5088307000,127.0343326000
3,8,0,40,400,한솔빌딩,"서울특별시 강남구 학동로38길 25",37.5132761000,127.0346112000
3,8,0,40,400,호서빌딩,"서울특별시 강남구 봉은사로1길 37",37.5071147000,127.0240034000
3,8,0,40,400,"황금산 빌딩","서울특별시 강남구 선릉로145길 5-14",37.5205446000,127.0393832000
3,8,0,40,400,학동빌딩,"서울특별시 강남구 학동로 330",37.5162260000,127.0390786000
3,8,0,40,400,토미빌,"서울특별시 강남구 논현로116길 6",37.5092949000,127.0336801000
3,8,0,40,400,한국도자기블리스빌딩,"서울특별시 강남구 논현로 729",37.5170812000,127.0289790000
3,8,0,40,400,하나빌라,"서울특별시 강남구 학동로30길 43-4",37.5112937000,127.0333288000
3,8,0,40,400,프라임아파트,"서울특별시 강남구 도산대로30길 56",37.5162073000,127.0305973000
3,8,0,40,400,현대넥서스아파트,"서울특별시 강남구 언주로122길 6",37.5118661000,127.0366194000
3,8,0,40,400,카우빌,"서울특별시 강남구 강남대로124길 73",37.5113282000,127.0273065000
3,8,0,40,400,천조빌딩,"서울특별시 강남구 논현로 733",37.5174948000,127.0287304000
3,8,0,40,400,진성빌딩,"서울특별시 강남구 도산대로 206",37.5196520000,127.0290354000
3,8,0,40,400,코데즈빌딩,"서울특별시 강남구 학동로23길 55",37.5165897000,127.0263518000
3,8,0,40,400,파크빌,"서울특별시 강남구 논현로145길 52",37.5162883000,127.0250163000
3,8,0,40,400,주은빌,"서울특별시 강남구 강남대로116길 33",37.5068496000,127.0266141000
3,8,0,40,400,인바디빌딩,"서울특별시 강남구 언주로 625",37.5122697000,127.0352840000
3,8,0,40,400,의화빌딩,"서울특별시 강남구 도산대로 210",37.5198276000,127.0297986000
3,8,0,40,400,조엔리빌딩,"서울특별시 강남구 학동로19길 22",37.5143727000,127.0273602000
3,8,0,40,300,참존빌딩,"서울특별시 강남구 학동로24길 20",37.5119023000,127.0290503000
3,8,0,40,300,지성빌,"서울특별시 강남구 봉은사로33길 20",37.5092767000,127.0355458000
3,8,0,40,300,윤원빌딩,"서울특별시 강남구 봉은사로37길 8",37.5089614000,127.0371452000
3,8,0,40,300,우성캐스빌,"서울특별시 강남구 학동로4길 30",37.5095756000,127.0234434000
3,8,0,40,300,이건빌딩,"서울특별시 강남구 봉은사로 117",37.5053198000,127.0264873000
3,8,0,40,300,유정빌딩,"서울특별시 강남구 봉은사로29길 8",37.5083436000,127.0347687000
3,8,0,40,300,일레븐빌,"서울특별시 강남구 봉은사로29길 24-7",37.5093431000,127.0345581000
3,8,0,40,300,이레빌라,"서울특별시 강남구 언주로136길 15-13",37.5183195000,127.0371658000
3,8,0,40,300,정글빌딩,"서울특별시 강남구 봉은사로 159",37.5069248000,127.0317535000
4,8,0,40,300,영흥빌딩,"서울특별시 강남구 강남대로122길 10",37.5076373000,127.0240808000
4,8,0,40,300,영동빌딩,"서울특별시 강남구 강남대로 520",37.5086776000,127.0230647000
4,8,0,40,300,원스빌,"서울특별시 강남구 언주로121길 22",37.5113786000,127.0339748000
4,8,0,70,300,예인빌,"서울특별시 강남구 봉은사로29길 24-4",37.5090627000,127.0344722000
4,8,0,70,300,영빌라트,"서울특별시 강남구 도산대로34길 11-4",37.5194774000,127.0312449000
4,8,0,70,300,신정빌딩,"서울특별시 강남구 도산대로6길 8",37.5161554000,127.0214067000
4,8,0,70,300,아모제논현빌딩,"서울특별시 강남구 봉은사로 317",37.5099751000,127.0416081000
4,8,0,70,300,"성주그룹빌딩 별관","서울특별시 강남구 언주로150길 4",37.5207661000,127.0347833000
4,8,0,70,300,설봉빌딩,"서울특별시 강남구 언주로147길 36",37.5193420000,127.0313288000
4,8,0,70,300,시너지정형외과빌딩,"서울특별시 강남구 학동로 308",37.5154506000,127.0364282000
4,8,0,70,300,스톤빌딩,"서울특별시 강남구 언주로141길 31",37.5182238000,127.0322630000
4,8,0,70,300,삼성빌라,"서울특별시 강남구 학동로46길 43",37.5134209000,127.0396855000
4,8,0,70,300,세왕빌딩,"서울특별시 강남구 학동로24길 10",37.5125459000,127.0287154000
4,8,0,70,300,성지빌딩,"서울특별시 강남구 강남대로132길 11",37.5124031000,127.0219803000
4,8,0,70,300,성보빌딩,"서울특별시 강남구 학동로 216",37.5143086000,127.0327950000
4,8,0,70,300,부경빌딩,"서울특별시 강남구 강남대로118길 12",37.5063094000,127.0247472000
4,8,0,70,300,상원빌딩,"서울특별시 강남구 봉은사로 137",37.5062931000,127.0295436000
4,8,0,70,300,삼익전자빌딩,"서울특별시 강남구 강남대로 560",37.5119213000,127.0213352000
4,8,0,70,300,리엔킴빌딩,"서울특별시 강남구 언주로114길 15-5",37.5104640000,127.0386327000
4,8,0,70,300,두로빌딩,"서울특별시 강남구 봉은사로29길 7",37.5081528000,127.0345808000
4,8,0,70,300,마진빌,"서울특별시 강남구 학동로31길 18",37.5158011000,127.0319377000
4,8,0,70,300,미래빌딩,"서울특별시 강남구 봉은사로 315",37.5098717000,127.0414414000
4,8,0,70,300,동익빌딩,"서울특별시 강남구 언주로 730",37.5201507000,127.0348904000
4,8,0,70,300,동도빌딩,"서울특별시 강남구 논현로 606",37.5078676000,127.0340118000
4,8,0,70,300,동암빌딩,"서울특별시 강남구 학동로 133",37.5126233000,127.0254916000
4,8,0,70,300,동진빌딩,"서울특별시 강남구 도산대로 204",37.5195098000,127.0288636000
4,8,1,70,300,드래곤플라이빌딩,"서울특별시 강남구 논현로139길 24",37.5163478000,127.0273828000
4,8,1,70,300,마스터스729빌딩,"서울특별시 강남구 언주로 729",37.5199643000,127.0341790000
4,8,1,70,300,리더스빌,"서울특별시 강남구 논현로113길 7",37.5082334000,127.0325123000
4,8,1,70,300,논현중원빌라,"서울특별시 강남구 학동로50길 44",37.5136830000,127.0407478000
4,8,1,70,300,덕수빌딩,"서울특별시 강남구 논현로 608",37.5080691000,127.0339247000
4,8,1,70,300,대화빌딩,"서울특별시 강남구 봉은사로 321",37.5099938000,127.0419799000
4,8,1,70,300,"더 스마트 빌리지","서울특별시 강남구 논현로123길 54",37.5100862000,127.0280289000
4,8,1,70,300,논현빌라,"서울특별시 강남구 학동로11길 18",37.5134747000,127.0247506000
4,8,1,70,300,논현동빌딩,"서울특별시 강남구 학동로 137-7",37.5129162000,127.0256248000
4,8,1,70,300,논현베르빌,"서울특별시 강남구 학동로30길 21",37.5126583000,127.0328000000
4,8,1,70,300,넥서스빌딩,"서울특별시 강남구 언주로147길 29-5",37.5191139000,127.0320364000
4,8,1,70,300,논현빌딩,"서울특별시 강남구 도산대로26길 17",37.5180130000,127.0280613000
4,8,1,70,300,건우빌딩,"서울특별시 강남구 강남대로 548",37.5110390000,127.0219111000
4,8,1,70,300,국제빌딩,"서울특별시 강남구 학동로 160",37.5130397000,127.0285030000
4,8,1,70,300,나산빌라,"서울특별시 강남구 학동로17길 21",37.5140505000,127.0255907000
4,8,1,70,300,골든캐슬,"서울특별시 강남구 도산대로54길 48-8",37.5196613000,127.0388638000
4,8,1,70,300,나라빌딩,"서울특별시 강남구 논현로142길 34",37.5177514000,127.0319541000
4,8,1,70,300,가헌빌딩,"서울특별시 강남구 선릉로 659",37.5154518000,127.0416564000
4,8,1,70,300,경원빌딩,"서울특별시 강남구 언주로 708",37.5162917000,127.0357398000
4,8,1,70,300,광일아트빌,"서울특별시 강남구 강남대로124길 20-1",37.5090527000,127.0246476000
4,8,1,70,300,4월31일빌딩,"서울특별시 강남구 논현로 707",37.5150928000,127.0298941000
4,8,1,70,300,916빌딩,"서울특별시 강남구 도산대로 310",37.5215487000,127.0354794000
4,8,1,70,300,DMCC빌딩,"서울특별시 강남구 도산대로 224",37.5203448000,127.0315701000
4,8,1,70,300,JS빌딩,"서울특별시 강남구 논현로128길 20",37.5135802000,127.0328407000
4,8,1,70,300,진영하이빌,"서울특별시 종로구 필운대로5나길 48",37.5803339000,126.9659251000
4,8,1,70,300,코디골드빌103,"서울특별시 종로구 옥인2길 12",37.5804740000,126.9667329000
4,8,1,70,300,우경하이츠빌라,"서울특별시 종로구 옥인6길 18",37.5812539000,126.9643784000
4,8,1,70,300,인왕산그린빌라,"서울특별시 종로구 옥인6길 4",37.5817848000,126.9642526000
4,8,1,70,300,세유빌라,"서울특별시 종로구 필운대로5나길 36",37.5801869000,126.9664956000
4,8,1,70,300,두레리치빌,"서울특별시 종로구 옥인길 75",37.5817819000,126.9647858000
4,8,1,70,300,청솔빌라,"서울특별시 광진구 천호대로118길 17",37.5538186000,127.0852944000
4,8,1,70,300,한사랑빌딩,"서울특별시 광진구 능동로 264",37.5535152000,127.0778512000
4,8,1,70,300,효빌라,"서울특별시 광진구 천호대로122길 19",37.5526638000,127.0877406000
4,8,1,70,300,삼흥빌딩,"서울특별시 광진구 천호대로 602",37.5549250000,127.0843464000
4,8,1,70,300,엠캐슬여름A,"서울특별시 광진구 천호대로122길 22",37.5526702000,127.0875222000
4,8,1,70,300,원광빌딩,"서울특별시 광진구 능동로 272",37.5542009000,127.0781989000
4,8,1,70,300,E&J빌딩,"서울특별시 광진구 천호대로 610",37.5546340000,127.0850947000
4,8,1,70,300,동우빌딩,"서울특별시 광진구 천호대로 566",37.5563765000,127.0806594000
4,8,1,70,300,네모313빌딩,"서울특별시 동대문구 천호대로 313",37.5654567000,127.0553185000
4,8,1,70,300,그린빌라,"서울특별시 동대문구 답십리로57길 3-6",37.5733074000,127.0605162000
4,8,1,70,300,두리아트빌,"서울특별시 동대문구 한천로33길 15",37.5761270000,127.0669125000
4,8,1,70,300,리더스빌딩,"서울특별시 동대문구 한천로 43",37.5659283000,127.0611501000
4,8,1,70,300,동서울한양아파트,"서울특별시 동대문구 답십리로 184",37.5715766000,127.0601741000
4,8,1,70,300,샤인파크빌,"서울특별시 동대문구 서울시립대로2길 71-18",37.5728500000,127.0500893000
4,8,1,70,300,상원빌딩,"서울특별시 동대문구 전농로 60",37.5701724000,127.0574784000
4,8,1,70,300,진보빌라,"서울특별시 동대문구 한천로11길 21",37.5670754000,127.0611132000
4,8,1,70,300,정민빌딩,"서울특별시 동대문구 한천로 45",37.5662243000,127.0612924000
4,8,1,70,300,신동인오피스텔,"서울특별시 영등포구 버드나루로15길 3",37.5261211000,126.9085203000
4,8,1,70,300,래미안당산1차아파트,"서울특별시 영등포구 당산로54길 11",37.5343799000,126.9059115000
4,8,1,70,300,션샤인빌,"서울특별시 영등포구 영신로41길 13",37.5219139000,126.8998827000
4,8,1,70,300,보성빌딩,"서울특별시 영등포구 영신로39길 16-6",37.5221558000,126.8996910000
4,8,1,70,300,대일빌딩,"서울특별시 영등포구 당산로 82",37.5219551000,126.8960142000
4,8,1,70,300,당산빌리지,"서울특별시 영등포구 당산로20길 24",37.5230423000,126.8986991000
4,8,1,70,300,푸르미르빌,"서울특별시 영등포구 당산로16길 24-11",37.5219456000,126.8983905000
4,8,1,70,300,진로아파트,"서울특별시 영등포구 영등포로 130",37.5210178000,126.8957890000
4,8,1,70,300,신현빌3차,"서울특별시 영등포구 영신로43길 8-9",37.5224091000,126.9001015000
4,8,1,70,300,당산준빌,"서울특별시 영등포구 선유동1로 20-4",37.5237137000,126.8921396000
4,8,1,70,300,영화빌딩,"서울특별시 영등포구 영등포로 116-1",37.5213945000,126.8943643000
4,8,1,70,300,행당빌딩,"서울특별시 영등포구 당산로28길 6",37.5246238000,126.8971782000
4,8,1,70,300,청솔파크빌,"서울특별시 영등포구 당산로29길 4",37.5260933000,126.8947377000
4,8,1,70,300,창빌딩,"서울특별시 영등포구 국회대로 568",37.5274172000,126.8973946000
4,8,1,70,300,영보빌딩,"서울특별시 영등포구 당산로31길 13",37.5266214000,126.8952230000
4,8,1,70,300,림스빌딩,"서울특별시 영등포구 당산로27길 17",37.5250691000,126.8943463000
4,8,1,70,300,당산계룡리슈빌3단지,"서울특별시 영등포구 양산로25길 12",37.5244506000,126.8991556000
4,8,1,70,300,동원빌딩,"서울특별시 영등포구 당산로38길 9-6",37.5291982000,126.8998273000
4,8,1,70,300,광일빌딩,"서울특별시 영등포구 당산로36길 13-6",37.5282880000,126.8995412000
4,8,1,70,300,청암빌딩,"서울특별시 영등포구 당산로 176",37.5298526000,126.8990688000
4,8,1,70,300,정금빌딩,"서울특별시 영등포구 당산로35길 8",37.5290769000,126.8970084000
4,8,1,70,300,상헌빌,"서울특별시 영등포구 당산로38길 15-3",37.5288507000,126.9001349000
4,8,1,70,300,성호빌라,"서울특별시 영등포구 당산로36길 13-4",37.5281755000,126.8994404000
4,8,1,70,300,박의원빌딩,"서울특별시 영등포구 당산로 166",37.5291038000,126.8985050000
4,8,1,70,300,"당산 삼성쉐르빌","서울특별시 영등포구 당산로45길 1",37.5332573000,126.9005069000
4,8,1,70,300,강변리치빌Ⅱ,"서울특별시 영등포구 당산로50길 32",37.5328564000,126.9047901000
4,8,1,70,300,성원파크빌,"서울특별시 영등포구 당산로46가길 6-6",37.5335941000,126.9040830000
4,8,1,70,300,대로빌딩,"서울특별시 영등포구 당산로51길 15",37.5365227000,126.9015706000
4,8,1,100,300,굿모닝빌,"서울특별시 영등포구 당산로50가길 9",37.5325648000,126.9059234000
4,8,1,100,300,JF명오빌,"서울특별시 영등포구 당산로48길 6-13",37.5341012000,126.9035579000
4,8,1,100,300,한경빌딩,"서울특별시 영등포구 양평로 64",37.5351430000,126.8999717000
4,8,1,100,250,정옥빌딩,"서울특별시 영등포구 당산로54길 26",37.5338648000,126.9056082000
4,8,1,100,250,아인빌딩,"서울특별시 영등포구 당산로50길 31",37.5329496000,126.9051281000
4,8,1,100,250,규선빌,"서울특별시 마포구 와우산로3안길 49-3",37.5469157000,126.9207044000
4,8,1,100,250,세종빌리지,"서울특별시 마포구 와우산로3길 45",37.5454827000,126.9205933000
4,8,1,100,250,골든빌라,"서울특별시 영등포구 대방천로 36",37.5053364000,126.8973248000
4,8,1,100,250,건용빌딩,"서울특별시 영등포구 대림로 199",37.4985732000,126.8979345000
4,8,1,100,250,금강빌라,"서울특별시 영등포구 대림로41길 12-8",37.5012379000,126.8957115000
4,8,1,100,250,금부빌라,"서울특별시 영등포구 대림로46길 11",37.5028035000,126.8974518000
5,8,1,100,250,국제아트빌,"서울특별시 영등포구 도림로39길 13-1",37.4942609000,126.8973897000
5,8,1,100,250,대광빌라,"서울특별시 영등포구 디지털로64가길 3",37.4918306000,126.9043969000
5,8,1,100,250,대영빌딩,"서울특별시 영등포구 도림로31길 22",37.4942816000,126.8951905000
5,8,1,100,250,대림동근생빌딩,"서울특별시 영등포구 대림로 245",37.5023211000,126.8963965000
5,8,0,100,250,대림빌딩,"서울특별시 영등포구 대림로40길 8",37.5011316000,126.8981085000
5,8,0,100,250,대림스타빌딩,"서울특별시 영등포구 도림로48길 4",37.4949995000,126.9006442000
5,8,0,100,250,대명빌딩,"서울특별시 영등포구 대림로35길 6",37.4990460000,126.8972818000
5,8,0,100,250,동화빌딩,"서울특별시 영등포구 대림로 76",37.4894605000,126.9057806000
5,8,0,100,250,리치빌,"서울특별시 영등포구 가마산로 325-17",37.4988062000,126.8947072000
5,8,0,100,250,라온빌,"서울특별시 영등포구 도림로50길 12",37.4946300000,126.9014410000
5,8,0,100,250,문화빌딩,"서울특별시 영등포구 대림로 202",37.4987190000,126.8985445000
5,8,0,100,250,보람하이빌,"서울특별시 영등포구 대림로22길 16-3",37.4942755000,126.9030148000
5,8,0,100,250,보원빌라,"서울특별시 영등포구 대림로31나길 14",37.4968062000,126.8961378000
5,8,0,100,250,방주빌라,"서울특별시 영등포구 도림로47가길 1-2",37.4972361000,126.8999498000
5,8,0,100,250,삼우빌딩,"서울특별시 영등포구 대림로 231",37.5011870000,126.8967773000
5,8,0,100,250,삼미아트빌,"서울특별시 영등포구 디지털로52길 11-2",37.4897479000,126.9018021000
5,8,0,100,250,세종빌리지,"서울특별시 영등포구 대림로34자길 6",37.5006157000,126.9010935000
5,8,0,100,250,성강케렌시아,"서울특별시 영등포구 대림로40가길 14",37.5023838000,126.8975288000
5,8,0,100,250,성원아파트,"서울특별시 영등포구 대림로 256",37.5037364000,126.8967859000
5,8,0,100,250,송원빌딩,"서울특별시 영등포구 대림로 203",37.4988094000,126.8979241000
5,8,0,100,250,스타로닉빌딩,"서울특별시 영등포구 가마산로 337",37.4995679000,126.8966772000
5,8,0,100,250,영진빌딩,"서울특별시 영등포구 대림로29길 43",37.4937883000,126.8954264000
5,8,0,100,250,영강빌딩,"서울특별시 영등포구 가마산로 371",37.5017841000,126.8990565000
5,8,0,100,250,우영채움빌(2동),"서울특별시 영등포구 대림로34자길 3",37.5003206000,126.9010670000
5,8,0,100,250,위너빌,"서울특별시 영등포구 도림로31길 4",37.4927271000,126.8958565000
5,8,0,100,250,우성아트빌,"서울특별시 영등포구 대림로7다길 6",37.4893222000,126.9033028000
5,8,0,100,250,이지빌,"서울특별시 영등포구 도림천로13길 2",37.4901750000,126.8968312000
5,8,0,100,250,유성빌딩,"서울특별시 영등포구 디지털로 400",37.4922778000,126.9033540000
5,8,0,100,250,의성빌딩,"서울특별시 영등포구 디지털로61길 1",37.4924182000,126.9030395000
5,8,0,100,250,천용빌라,"서울특별시 영등포구 대림로22가길 9-2",37.4932700000,126.9025331000
5,8,0,100,250,주용빌딩,"서울특별시 영등포구 대림로27길 8",37.4951484000,126.8988255000
5,8,0,100,250,전국빌딩,"서울특별시 영등포구 대림로 192",37.4980284000,126.8989168000
5,8,0,100,250,태흥빌라,"서울특별시 영등포구 디지털로37길 9-13",37.4893682000,126.8984535000
5,8,0,100,250,청솔빌,"서울특별시 영등포구 디지털로48길 18-3",37.4882051000,126.9011349000
5,8,0,100,250,하늘아트빌,"서울특별시 영등포구 도신로12길 6",37.5046107000,126.8980942000
5,8,0,100,250,현대아트빌,"서울특별시 영등포구 도신로12길 4",37.5047291000,126.8979692000
5,8,0,100,250,현대2차아파트,"서울특별시 영등포구 도신로4길 2",37.5032704000,126.8953582000
5,8,0,100,250,한솔베스트빌,"서울특별시 동작구 대방동17길 10",37.5033412000,126.9248951000
5,8,0,100,250,현대아트빌,"서울특별시 동작구 여의대방로26길 76",37.4991342000,126.9246246000
5,8,0,100,250,효성아파트,"서울특별시 동작구 여의대방로62길 24",37.5138778000,126.9291403000
5,8,0,100,250,하나마을아파트,"서울특별시 동작구 대방동9길 4",37.5026428000,126.9263266000
5,8,0,100,250,참존빌,"서울특별시 동작구 대방동13길 6",37.5024403000,126.9253034000
5,8,0,100,250,칸타빌레,"서울특별시 동작구 상도로 62",37.4995642000,126.9273913000
5,8,0,100,250,이투데이빌딩,"서울특별시 동작구 여의대방로62길 1",37.5140497000,126.9270279000
5,8,0,100,250,영화아트빌라,"서울특별시 동작구 등용로8가길 12",37.5063085000,126.9340760000
5,8,0,100,250,올리브빌딩,"서울특별시 동작구 상도로 58",37.4995887000,126.9268523000
5,8,0,100,250,유빌라테,"서울특별시 동작구 대방동길 69",37.5042751000,126.9253130000
5,8,0,100,250,이레홈캐슬,"서울특별시 동작구 대방동15다길 7",37.5034188000,126.9222224000
5,8,0,100,250,신명테크노빌,"서울특별시 동작구 상도로11길 5",37.5002137000,126.9290925000
5,8,0,100,250,엘리시아빌딩,"서울특별시 동작구 등용로 115",37.5114623000,126.9317563000
5,8,0,100,250,영진빌딩,"서울특별시 동작구 등용로 106-1",37.5107742000,126.9322740000
5,8,0,100,250,성화빌라,"서울특별시 동작구 대방동25길 9",37.5042774000,126.9248802000
5,8,0,100,250,시티오피스텔,"서울특별시 동작구 대방동1길 1",37.5001251000,126.9276463000
5,8,0,100,250,"베스트 빌","서울특별시 동작구 대방동13길 16",37.5015438000,126.9252236000
5,8,0,100,250,삼인아파트(빌),"서울특별시 동작구 여의대방로36길 7",37.5043213000,126.9226566000
5,8,0,100,250,미성빌딩,"서울특별시 동작구 등용로 41-1",37.5054375000,126.9340510000
5,8,0,100,250,미래하이츠빌,"서울특별시 동작구 등용로8길 47",37.5070276000,126.9334487000
5,8,0,100,250,보라매웨스트빌,"서울특별시 동작구 여의대방로24다길 4",37.4987979000,126.9212466000
5,8,0,100,250,르미에빌딩,"서울특별시 동작구 여의대방로46길 18",37.5101273000,126.9258708000
5,8,0,100,250,대방아트빌,"서울특별시 동작구 대방동23가길 4",37.5042484000,126.9238387000
5,8,0,100,250,도원빌딩,"서울특별시 동작구 여의대방로24마길 20",37.4994078000,126.9241948000
5,8,0,100,250,대방동아파트,"서울특별시 동작구 여의대방로36길 16",37.5047555000,126.9237367000
5,8,0,100,250,대방빌리지,"서울특별시 동작구 상도로11길 6",37.5003580000,126.9295311000
5,8,0,100,250,누리빌,"서울특별시 동작구 대방동1길 6",37.5004033000,126.9270898000
5,8,0,100,250,다울아파트,"서울특별시 동작구 대방동2길 38",37.5029313000,126.9274743000